name1,street1,city,zip,county,phone,intake_prompt,website,latitude,longitude,mh,psy,rtcc,rtca,ores,ph,omh,cmhc,msmh,ipt,cft,gt,cbt,dbt,bmt,idd,tt,at,ect,tele,smon,smpd,smop,hi,res,phdt,op,vamc,sma,osg,lmg,tbg,ih,sf,md,mc,si,pi,mi,smha,swfs,scjj,sef,osf,clf,csbg,cmhg,vaf,cit,wi,ss,pa,ah,sp,co,gl,vet,adm,mf,cj,se,hv,trma,sed,smi,alz,ptsd,tbi,tay,ped,act,icm,cm,cdm,peer,coot,dec,es,fpsy,hs,imr,ipc,lad,nrt,nsc,prs,stu,sps,semp,sh,tpc,tcc,vrs,chld,yad,adlt,snr,itu,pvtp,pvtn,fqhc,vo,sumh,ccbhc,chlor,drope,fluph,halop,loxap,perph,pimoz,proch,thiot,thior,trifl,aripi,asena,brexp,carip,cloza,ilope,luras,olanz,olanzf,palip,queti,rispe,zipra,crt,emdr,kit,tms,peon,peoff,fg,pcf,dv,pefp,hivt,shb,shc,stdt,tbs,aot,ptm,msnh,f17,f19,f25,f28,f30,f31,f35,f36,f37,f4,f42,f43,f47,f66,f67,f70,f81,f92,n13,n18,n23,n24,n40
VA Greater Los Angeles Healthcare Sys,351 East Temple Street,Los Angeles,90012,Los Angeles,213-253-2677,Intakes,http://www.va.gov,34.0520292,-118.2385001,1,,,,,,,,,1,1,1,1,1,1,1,1,1,,1,1,,,,,1,1,1,,,,,,,,,,,,,,,,,,,,1,,1,,,,,1,1,1,,1,1,1,,1,,1,,1,1,1,,,1,1,1,1,1,1,1,1,1,1,1,,1,1,1,1,1,1,,,1,1,,1,1,1,,,,,1,1,,,,1,1,,,1,1,1,1,1,1,1,1,1,1,1,1,1,1,1,1,1,1,,,,,,,,,,,1,1,1,1,1,,,,,,,,,,,,,,,,,,,,,,,,,,
JWCH Institute/Wesley Health Ctrs,522 South San Pedro Street,Los Angeles,90013,Los Angeles,323-201-4516,Intake,http://jwchinstitute.org,34.0432489,-118.2437768,1,,,,,,1,,,1,1,1,1,,1,1,1,,,1,,1,,,,,1,,,,,,,1,1,1,1,1,,1,,,,1,1,1,1,,,,1,1,,1,1,1,1,,,,1,1,1,,1,,1,,1,,,1,1,1,1,1,1,1,1,1,,1,,,,,1,,,,,1,,,1,1,1,,,1,1,,1,,,,,,,,,,,,,,,,,,,,,,,,,,,,,,,,1,1,,,1,1,1,1,1,1,,,,,,,,,,,,,,,,,,,,,,,,,
Para Los Ninos,849 East 6th Street,Los Angeles,90021,Los Angeles,213-623-8446 x224,Intakes,http://www.paralosninos.org,34.0401257,-118.2413167,1,,,,,,1,,,1,1,1,1,,1,,1,,,,1,,,,,,1,,,,,,,,,1,,,,1,1,,,1,1,,1,,,,,1,,1,,,,,,,,,1,1,,,1,,1,,,,1,,,,,,1,,,,,,,1,,,,,,,,1,1,,,,,1,,,,,,,,,,,,,,,,,,,,,,,,,,,,,,,,,,,,,,,,,,,,,,,,,,,,,,,,,,,,,,,1,,,,,,
Asian Pacific Counseling and,1310 Wilshire Boulevard,Los Angeles,90017,Los Angeles,213-483-3000,,http://www.apctc.org,34.0530816,-118.2606109,1,,,,,,1,,,1,1,1,1,,1,1,1,,,1,,1,,,,,1,,,,,,,1,1,1,,,,1,1,1,,1,1,1,1,,1,,,1,,,1,,,,,,1,,,,1,,,,,,,,1,,1,1,,,,1,,,,,,1,,1,1,1,,,1,,1,1,1,,,1,,,1,,,,,,,,,,,,,,,,,,,,,,,,,,,,,,1,,,,,,,,,,,1,,,1,,,,,,,,,,,1,1,,,,,,,,,,
SSG/Asian Pacific Counseling and,1310 Wilshire Boulevard,Los Angeles,90017,Los Angeles,213-483-3000,,http://www.apctc.org,34.0530933,-118.260626,1,,,,,,1,,,1,1,1,1,,1,1,1,,,1,,1,,,,,1,,,,,,,1,1,1,,,,1,1,1,,1,1,1,1,,1,,,1,,,1,,,,,,1,,,,1,,,,,,,,1,,1,1,,,,1,,,,,,1,,1,1,1,,,1,,1,1,1,,,1,,,1,,,,,,,,,,,,,,,,,,,,,,,,,,,,,,1,,,,,,,,,,,1,,,1,,,,,,,,,,,1,1,,,,,,,,,,
Amanecer Community Counseling Service,1200 Wilshire Boulevard,Los Angeles,90017,Los Angeles,213-481-7464 x271,Intake,http://www.amanecerla.org,34.0529086,-118.2653159,1,,,,,,1,,,1,1,1,1,,1,1,1,1,,1,,1,,,,,1,,,,,,,1,1,1,1,,,,1,,,,1,,1,,1,,1,1,,1,1,1,1,,1,,1,,1,1,1,,1,,1,,,1,1,,,,,,1,1,,1,,,,1,,1,,1,,,,1,1,1,1,,,1,,,1,,1,1,1,1,1,1,,1,1,1,1,1,1,,1,1,1,1,1,1,1,1,1,1,,,,,,1,1,1,,1,,,,,,,,,,,,,,,,,,,,,,,,,,,,,,,
Wellnest,Adventist Health White Memorial,Los Angeles,90033,Los Angeles,323-373-2400,Intake,http://wellnestla.org,34.0494573,-118.2167639,1,,,,,,,1,,1,1,1,1,,1,,1,,,1,1,,,,,,1,,,,,,,,1,,,,,1,1,,,1,1,,,,,,,1,1,1,1,1,,,,1,,,1,1,1,,1,,1,1,,1,1,,,1,1,,1,,,1,,,,,,1,,,,,,1,1,1,,,,1,,,1,,,,,,,,,,,,,1,,,,,,,1,,,1,1,,,,,,,,,1,1,1,,,,,,,,,,,,,,,,,,,,,,,,,,,,,,,
Dignity Health,1400 South Grand Avenue,Los Angeles,90015,Los Angeles,213-742-6250,,http://www.hopestreetfamilycenter.org,34.0368416,-118.2652246,1,,,,,,1,,,1,1,1,1,1,,1,1,,,,1,,,,,,1,,,,,,,,,1,,,,1,1,,,,,,,,,,,,,1,1,1,,,,,,,1,1,,,1,,1,,,1,1,,,1,,,1,,,,,,,1,1,1,,,,,1,1,1,1,1,,,1,,,,,,,,,,,,,,,,1,,,,,,,1,1,,1,1,,,,,,,,,1,,,,,,,,,,,,,,,,,,,,,,,,,,,,,,,,,
Star View Community Services,1625 West Olympic Boulevard,Los Angeles,90015,Los Angeles,323-999-2404,,http://www.starsinc.com/los-angeles-county/,34.04995,-118.2748563,1,,,,,,1,,,1,1,1,1,,1,,1,,,1,,1,,,,,1,,,,,,,,1,,1,1,,1,1,1,1,1,1,,,,1,,,,1,1,,,,,,,,,1,1,1,,1,,1,,,1,1,1,,1,,,1,,,,,,,1,1,1,,,,,,1,1,1,,,1,,1,,1,,,,,,,,,,,,,1,,,,,,1,1,,,1,1,,,,,,,1,,,,,,,,,,,,,,,,,,,,,,,,,,,,,,,,,,,
Hillsides FRC,1910 West Sunset Boulevard,Los Angeles,90026,Los Angeles,213-201-5380,Intake,http://www.hillsides.org,34.0773897,-118.2613418,1,,,,,,1,,,1,1,1,,,1,1,1,,,1,,1,,,,,1,,,,,,,,1,,,1,,1,1,,,,1,,,,1,,,,,1,,1,,,1,,,,1,1,1,,1,,1,,,1,1,,1,1,,,,,,,1,,,1,1,1,1,1,,,,1,1,1,,,,1,,,1,,,,,,,,,,,,,1,,,,,,1,1,,,1,1,1,,,,,,1,,,,,,,,,,,,,,,,,,,,,,,,,,,,,,,,,,,
LAC USC Medical Center,1200 North State Street,Los Angeles,90033,Los Angeles,323-409-2800,,http://dhs.lacounty.gov/wps/portal/dhs/lacusc/gme/,34.0577573,-118.2081617,1,1,,,,,,,,1,1,1,1,,1,,,1,,,1,,,1,,,1,,,,1,,,1,1,1,1,1,1,1,1,1,1,1,1,1,1,1,1,1,,1,1,1,,,,,,,,,,1,1,,,,1,,,,1,1,,1,1,,,,,1,,1,1,1,1,,,,,1,,1,1,1,1,,,,,,1,,1,,1,1,1,,1,,,,1,1,,,,1,,1,1,,1,1,1,1,,,,,1,,1,,,,1,1,1,1,1,1,,,,,,,,,,,,,,,,,,,,,,,,,
SSG/Asian Pacific Counseling and,520 South Lafayette Park Place,Los Angeles,90057,Los Angeles,213-252-2100,,http://www.apctc.org,34.0636002,-118.2821251,1,,,,,,1,,,1,1,1,1,,1,1,1,,,,,1,,,,,1,,,,,,,1,1,1,,,,1,1,1,,1,1,1,1,,1,,,1,,1,,1,,,,,1,,1,1,1,,1,,1,1,,,1,,,1,,,,1,,,,,,,,1,1,1,,,1,1,1,1,1,,,1,,,1,,,,,,,,,,,,,,,,,,,,,,,,,,,,,,,,,,1,,,,,,,,,,,,,,,,,,,,,,,,,,,,,,,,
Didi Hirsch Mental Health Services,672 South La Fayette Park Place,Los Angeles,90057,Los Angeles,310-390-6612,Intakes,http://www.didihirsch.org,34.060185,-118.283754,1,,,,,,,1,,1,1,1,1,,1,,1,,,1,1,,,,,,1,,,,,,,1,,1,,,,1,1,,,,,,1,,,,,,,1,,,,,,,,,1,1,,,1,,,,,,1,,,,,,1,,,,,,,1,,1,,,,,,1,,,,,,1,,,,,,,,,,,,,,,,,,,,,,,,,,,,,,,,,,,,,,,,,,,,,,,,,,,,,,,,,,,,,,,,,,,,,
Gateways Hospital and MH Center,1891 Effie Street,Los Angeles,90026,Los Angeles,323-644-2000,Intakes,http://www.gatewayshospital.org/,34.085158,-118.256578,1,,,,,,1,,,1,1,1,1,,1,,1,,,,,1,,,,,1,,,,,,,1,,,,,,1,1,1,,,,,,,,,1,,,1,,,,,,1,,,1,1,,,1,,1,,,,1,,,,,,1,,,,,,,,,1,,,,,,1,1,,,,,1,,,1,,,,,1,,,,,,,,1,,,,,,1,1,,,1,1,1,,,,,,,,,,,,,,,,,,,,,,,,,,,,,,,,,,,,,,,,,
Childrens Bureau of Southern CA,1910 Magnolia Avenue,Los Angeles,90007,Los Angeles,213-342-0100,,http://www.all4kids.org,34.0394723,-118.285642,1,,,,,,,1,,1,1,1,1,,1,,1,,,1,1,,,,,,1,,,,,,,1,1,1,,,,,,,,1,1,,1,,,,,,1,1,,1,,,,,,,1,1,,,1,,,,,,1,,,1,,,,,,,,,,,,,,,,,,1,,,,,,1,1,,,,,,,,,,,,,,,,,,,,,,,,,,,,,,,,,,,,,,,,,,,,,,,,,,,,,,,,,,,,,,,,,,,,
Northeast Mental Health Center,3303 North Broadway,Los Angeles,90031,Los Angeles,323-478-8200,,http://,34.0741129,-118.206315,1,,,,,,1,,,1,,1,1,1,,1,1,1,,1,,1,,,,,1,,,,1,,,1,1,1,1,1,,,,,,,1,,,,1,1,1,1,1,1,1,,,,,,1,,1,,1,,,,,,,1,1,,1,,1,1,1,1,,,,1,1,1,1,1,1,1,,1,1,,1,1,1,,,,,,1,,1,,1,1,,,,,,,,1,1,1,1,1,1,1,1,1,1,1,1,1,,,,,1,1,,,1,,,,,,,,,,1,,1,,,,,,,,,1,1,,,1,1,,,,,,
APAIT a Division of SSG,3055 Wilshire Boulevard,Los Angeles,90010,Los Angeles,213-375-3830,,http://www.apaitonline.org,34.0622325,-118.2880455,1,,,,,,1,,,1,1,1,1,1,1,1,1,1,,1,,1,,,,,1,,,,,,,1,1,1,,,,,,,,1,1,,,,1,,,,,1,1,1,,,,,1,1,1,,,,1,,1,,1,1,1,1,1,1,,1,1,1,,1,,,,1,,1,,,,,1,,1,1,1,,,1,,,,,,,,,,,,,,,,,,,,,,,,,,,,,,,,,,,1,,,,1,1,1,1,,,,,1,,,,,,,,,,,,1,,,,1,,,,,,
Pacific Clinics,679 South New Hampshire Avenue,Los Angeles,90005,Los Angeles,213-639-2660,Intake,http://www.pacificclinics.org,34.0606741,-118.293195,1,,,,,,,1,,1,1,1,1,,1,,,,,1,1,,,,,,1,,,,,,,,1,1,1,,1,1,1,1,,,1,1,1,1,1,,1,1,,1,1,1,1,,1,1,1,1,1,,1,,1,,,,1,1,1,,1,,,,1,,,1,,,,1,,,1,1,,,,,1,1,1,,,1,1,,1,,,,,1,,,,,,,,1,,,,1,1,1,1,,1,1,1,1,,,,,1,,,,1,1,,,,,,,,,,,,,,1,,,,,,,,,,,1,,,,,,
Gateways Hospital and MH Center,3455 Percy Street,Los Angeles,90023,Los Angeles,323-268-2100 x567,Intakes,http://www.gatewayshospital.org/,34.0284749,-118.1986568,1,,,,,,,,1,1,1,1,1,,1,,,1,,,,1,,,1,,1,,,,,,,,1,,,,,1,,,,,1,,,,,,,,1,1,,,,,,,,,,,1,,,,,,,,1,,,,,1,,,,,,,,,1,,,1,,1,,,1,1,,,,1,,,,,1,,1,1,1,1,,,,,,1,1,1,1,1,1,1,1,1,1,1,1,1,,,,,,,,,,,,,,,1,,,,,,,,,,,,,,,,,,,,,,,,,,
Haven at College ,817 West 34th Street,Los Angeles,90089,Los Angeles,855-806-4266,,http://www.thehavenatcollege.com/,34.0231738,-118.2842734,1,,,,,,1,,,1,,1,1,1,1,1,1,,,1,,,1,,,,1,,,,,,,1,,,,1,,,,,,,,,,,1,,1,,,,,1,,,,,,,,,,,,,1,,,,1,,1,1,1,1,1,,,,1,,,,1,,,1,,1,,,1,,,,1,,,,,,,,,,,,,,,,,,,,,,,,,,,,,,1,1,,,,,,1,,,,,,,,,,,,,,,,,,,,,,,,,,,,,,,,,
Childrens Bureau of Southern CA,3910 Oakwood Avenue,Los Angeles,90004,Los Angeles,323-953-7350,Intake,http://www.all4kids.org/,34.077416,-118.292392,1,,,,,,1,,,1,1,1,1,,,,1,1,,1,1,,,,,,1,,,,,,,,1,,1,,,,1,,,,1,,,,1,,,,,1,,1,,,1,1,,,1,1,,,1,,1,,,,1,,,,,,1,,,,,,,1,,1,,,,,,1,1,,,,,1,,,1,,,,,,,,,,,,,,,,,,,,,,,,,,,,,,,,,,,1,,,,,,,,,,,,,,,,,,,,,,,,,,,,,,,
Aviva Family and Childrens Services,3580 Wilshire Boulevard,Los Angeles,90010,Los Angeles,213-637-5000,Intake,http://www.aviva.org,34.0611215,-118.3028158,1,,,,,,1,,,1,1,,1,1,1,,1,,,,,1,,,,,1,,,,,,,1,1,,1,1,,1,1,1,,,1,1,1,,1,,1,1,,1,,1,,,,,,,1,1,,,1,,1,,,,1,,,,,,1,,,,,,,,,,,,,,,1,1,,,,,1,,,,,,,,,,,,,,,,1,1,,,1,,1,1,,1,1,1,1,,,,,,,,1,1,1,,,,,,,,,,,,,,,,,,,,,,,,,,,,,,,
Heritage Clinic,3600 Wilshire Boulevard,Los Angeles,90010,Los Angeles,213-382-4400,Intake,http://www.heritageclinic.org,34.0605163,-118.3036379,1,,,,,,1,,,1,1,1,1,1,1,1,1,,,1,,1,,,,,1,,,,,,,1,1,1,,1,,,,,,,1,,,,,,,,,1,,,,,,1,1,,,,1,1,,,,,,1,1,,,1,,,1,1,,,,,,1,,1,,1,,,,,,1,1,,,1,,,1,,,,,,,,,,,,,,,,,,,,,,,,,,,,,,,,,,,,,,,,,,,,,,,,,,,,,,,,,,,1,,,,,,,
Wellnest,3787 South Vermont Avenue,Los Angeles,90007,Los Angeles,323-373-2400,Intake,http://wellnestla.org/,34.0173455,-118.291916,1,,,,,,,1,,1,1,1,1,1,1,,1,,,1,1,,,,,,1,,,,,,,,1,,,,,1,1,,,1,1,,,,1,,,1,1,1,1,1,,,,1,,,1,1,1,,1,,1,1,,1,1,,,1,1,,1,,,,,,,,1,1,,,,,,1,1,1,,,,1,,,1,,,,,,,,,,,,,1,,,,,,,1,,,1,1,,,,,,,,,1,1,1,,,,,,,,,,,,,,,,,,,,,,,,,,,,,,,
Portals House Inc/Portals Community,3881 South Western Avenue,Los Angeles,90062,Los Angeles,323-290-4378,Intakes,http://www.pacificclinics.org,34.015039,-118.3091643,1,,,,,,1,,,1,1,1,1,,1,1,1,1,,1,,1,,,,,1,,,,,,,,1,1,1,1,1,1,1,1,1,1,1,1,1,1,1,1,,,,1,,,,,,,1,,,,1,,,,1,,1,1,1,,1,1,,,1,1,1,1,1,,,1,,1,1,1,,,1,1,1,1,1,1,,1,1,,1,,,,,1,,1,,,,,,1,,,,1,,1,1,1,1,1,1,,,,,,1,1,,,,,,,,,,,,,,,,,,,,,,,,,1,,,,,,,,,,
ALMA Family Services,4701 East Cesar E Chavez Avenue,Los Angeles,90022,Los Angeles,323-881-3799,,http://almafamilyservices.org,34.04077,-118.164403,1,,,,,,1,,,1,1,1,1,,1,1,1,,,,1,,,,,,1,,,,,,,,1,1,,,,,,,,,1,,,,1,,,,,1,1,1,,,1,1,1,1,1,1,1,,1,,1,1,,,1,,1,1,,,1,,,1,,,,1,,1,,,,,,1,1,1,1,,,1,,,1,,1,,1,1,1,1,,,,,,,,,,,,,,,,,,,,,,,1,,,,1,1,,,,,,,,,,,,,,,,,,,,,,,,,,,,,,,
Wellnest,5054 Vermont Avenue,Los Angeles,90037,Los Angeles,323-373-2444,Intakes,http://wellnestla.org/,33.9966843,-118.2911972,1,,,,,,,1,,1,1,1,1,,1,,1,,,1,1,,,,,,1,,,,,,,,1,,,,,1,1,,,1,1,,,,1,,,1,1,1,1,1,,,,1,,,1,1,1,,1,,1,1,,1,1,,,1,1,,1,1,,,,,,1,,1,1,1,,,1,1,1,,,,,1,,,1,,,,,,,,,,,,,1,,,,,,,1,,,1,1,,,,,,,,,1,1,1,,,,,,,,,,,,,,,,,,,,,,,,,,,,,,,
Uplift Family Services,815 North El Centro Avenue,Los Angeles,90038,Los Angeles,323-769-7163,Intakes,http://www.upliftfs.org/,34.0855137,-118.3256933,1,,,,,,1,,,1,1,,1,,1,,1,1,,1,1,,,,,,1,,,,,,,,1,,1,1,,1,,,,,1,,,,,,,,1,1,,,,,,,,,1,1,,,1,,,,,,1,,1,,,,1,,,,,,,1,,,,,,,,1,1,1,,,,1,,,,,,,,,,,,,,,,1,1,,,,,1,1,,,1,1,1,,,,,,,,1,,,,,,,,,,,,,,,,,,,,,,,,,,,,,,,,,
Glendale Mem Hospital and Healthcare,1420 South Central Avenue,Glendale,91204,Los Angeles,818-502-1900 x2362,Intakes,http://www.dignityhealth.org,34.1280862,-118.2569564,1,1,,,,,,,,,,1,,,,,,1,,1,1,,,1,,,,,,,,,,1,1,1,1,1,1,1,,,,1,1,,,,1,1,,,1,,1,1,1,,,1,1,1,1,,1,,1,,1,,,,,1,,,,,1,1,,1,,1,1,1,1,1,,,,1,,,1,1,,,,1,,,1,,1,,,1,,,,,,,,1,,,,1,,1,1,,1,1,1,1,,,,,1,,,,1,1,1,1,1,1,1,,,,,,,,,,,,,,,,,,,,,,,,,,
Hollywood Mental Health Center,1224 North Vine Street,Los Angeles,90038,Los Angeles,323-769-6100,,http://dmh.lacounty.gov/,34.0933177,-118.32615,1,,,,,,1,,,1,,1,1,1,1,,1,,,1,,1,,,,,1,,,,1,,,1,1,1,,1,,1,1,,,,1,,1,,1,1,1,,1,1,1,1,,,,,1,1,1,,1,,,,,,,1,1,,1,,,,,1,,,,,,1,1,1,,1,,,1,,1,1,1,,,,,,1,,,,,1,,1,,,1,1,1,1,,,,1,,1,1,1,1,1,1,1,,,,,1,1,,,,,,,,,,,,,1,,1,1,1,1,,,,1,,1,1,,,1,1,,,,,,
Hillsides FRC,5400 East Olympic Boulevard,Los Angeles,90022,Los Angeles,323-869-9225,Intake,http://www.hillsides.org,34.0151135,-118.1556963,1,,,,,,1,,,1,1,1,,,1,1,1,,,1,,1,,,,,1,,,,,,,,1,,,1,,1,1,,,,1,,,,1,,,,,1,,1,,,1,,,,1,1,1,,1,,1,,,1,1,,,1,,,,,,,1,,,1,1,1,,,,,,1,1,1,,,,1,,,1,,,,,1,,,,,,,,1,,,,,,1,1,,1,1,1,1,,,,,,1,,,,,,,,,,,,,,,,,,,,,,,,,,,,,,,,,,,
VA Greater Los Angeles Healthcare Sys,5426 East Olympic Boulevard,Los Angeles,90022,Los Angeles,323-725-7372,Intake,http://,34.0145179,-118.1554564,1,,,,,,,,,,,,,,,,1,,,,1,,,,,,1,1,,,,,,,,,,,,,,,,,,,,1,,,,,,,,,1,,,,,,,,,,,,,,,,,,,,,,,,,,,1,1,,1,,,,,1,,,1,1,1,,,,,1,1,,1,1,1,1,1,1,1,1,1,,1,1,,,,1,,1,1,1,1,1,1,1,,,,,,1,,,,,,,,,,,,,,,,,,,,,,,,,,,,,,,,,,,
Southern California Health and,3850 South Crenshaw Boulevard,Los Angeles,90008,Los Angeles,323-751-3026,,http://scharpca.org,34.0174928,-118.3350659,1,,,,,,1,,,1,1,1,1,1,1,1,1,,,1,,1,,,,,1,,,,,,,,1,1,,,,1,,,,1,1,,,,1,,,,,1,1,,,,,1,,,,,1,,,,,,1,1,1,,1,1,,1,1,1,,1,,,,1,1,1,1,1,,1,1,,1,1,1,,,1,,,1,,,,,1,,,,,,,,1,1,1,1,1,1,1,1,1,1,1,1,1,,,,,1,1,,,,,,,,,,,,,,,,,,,,,,,,,,,,,,,,,,,
Hillsides FRC,149 Pasadena Avenue,South Pasadena,91030,Los Angeles,323-274-3065,Intake,http://www.hillsides.org,34.1117485,-118.1728818,1,,,,,,1,,,1,1,1,,,1,1,1,,,1,,1,,,,,1,,,,,,,,1,,,1,,1,1,,,,1,,,,1,,,,,1,,1,,,1,,,,1,1,1,,1,,1,,,1,1,,1,1,,,,,,,1,,,1,1,1,1,1,,,,1,1,1,,,,1,,,1,,,,,,,,,,,,,1,,,,,,1,1,,,1,1,1,,,,,,1,,,,,,,,,,,,,,,,,,,,,,,,,,,,,,,,,,,
Tessie Cleveland Community Servs Corp,8019 South Compton Avenue,Los Angeles,90001,Los Angeles,323-586-7333,,http://www.tccsc.org,33.9660488,-118.2480026,1,,,,,,1,,,1,1,1,1,1,1,1,1,1,,1,1,,,,,1,1,,,,,,,1,1,1,,1,,,,,,,1,,,,1,,,,,1,1,,,,,1,1,,1,1,1,,1,,1,,,1,1,,1,1,,,1,,,,,,1,1,,1,,,,,,1,1,1,1,,,1,,,1,,,,,,,,,,,,,,,,,,,,,,,,,,,,,,,1,,,,,,,,,,1,,,,,,,,,,,,,,,,,,,,,,,,,
Wellnest,4401 Crenshaw Boulevard,Los Angeles,90043,Los Angeles,323-290-8360,Intake,http://wellnestla.org/,34.003228,-118.3320404,1,,,,,,,1,,1,1,1,1,1,1,,1,1,,1,1,,,,,,1,,,,,,,,1,,,,,1,1,,,1,1,,,,,,,1,1,1,1,1,,,,1,,,1,1,1,,1,,1,1,,,1,,,1,1,,1,,,,,,,,,1,,,,,,1,1,1,,,,1,,,1,,,,,,,,,,,,,1,,,,,,,1,,,1,1,,,,,,,,,1,1,1,,,,,,,,,,,,,,,,,,,,,,,,,,,,,,,
Hathaway/Sycamores Child/Family Servs,840 North Avenue 66,Los Angeles,90042,Los Angeles,323-257-9600,Intake,http://www.hathaway-sycamores.org/about-hathaway-sycamores/,34.1206366,-118.172231,1,,,,,,,1,,1,1,,1,,1,1,1,,,1,,1,,,,,1,,,,,,,,1,1,1,,,1,1,1,1,1,1,,1,,1,,,,,1,1,,,,,,,,1,1,,,1,,,,,1,1,,1,,,,1,,,,,,,,,1,,,,,,1,1,,,,,1,,,1,,,,,,,,,,,,,,,,,,,,,,,,,,,,,,,1,1,1,,,,,,,,,,,,,,,,,,,,,,,,,,,,,,,,,
Didi Hirsch Mental Health Services,1540 East Colorado Street,Glendale,91205,Los Angeles,818-244-7257,Intake,http://www.didihirsch.org,34.1422784,-118.2300479,1,,,,,,,1,,1,1,1,1,,1,1,1,,,1,1,,,,,,1,,,,,,,1,1,1,,1,,,,,,,1,,,,1,,,,,1,1,,,,,,1,,1,1,1,,1,,1,,,,1,,1,1,,,1,1,,,,,1,1,1,1,,,1,1,,1,1,1,1,,,1,,,1,,1,,1,1,1,1,,1,1,1,1,1,1,1,1,1,1,1,1,1,1,1,1,1,,,,,1,1,,,,1,,,,,,,,,1,,1,,,,,,,,,,1,,,1,,,,,,,
Hathaway/Sycamores Child/Family Servs,3741 Stocker Street,Los Angeles,90008,Los Angeles,323-733-0322,Intakes,http://www.hathaway-sycamores.org,34.0064992,-118.3386624,1,,,,,,,1,,1,1,,1,,1,1,1,,,1,,1,,,,,1,,,,,,,,1,1,,,,1,1,1,1,1,1,,1,,1,,,,1,1,1,,,,,1,,,1,1,,,1,,,,,1,1,,1,1,,,1,,,,,,,,1,1,,,,,,1,1,,,,,1,,,1,,,,,,,,,,,,,,,,,,,,,,,,,,,,,,,,,,,,,,,,,,,,,,,,,,,,,,,,,,,,,,,,,,
Hillsides,940 Avenue 64,Pasadena,91105,Los Angeles,323-254-2274,Intake,http://www.hillsides.org,34.1244844,-118.1758621,1,,1,,,,,,,1,1,1,,,1,1,1,1,,,1,,,,1,,,,,,,,,1,1,,,1,,1,1,,1,,1,,,,1,,,,,1,,1,,,,,,,1,1,,,1,,,,,1,1,,,1,,1,,,,,1,,,1,1,1,,,,,,1,,,,,,1,,,1,,,,,,,,,,,,,1,,,,,,1,1,,,1,1,1,,,,,,,,,,,,,,,,,,,,,,,,,,,,,,,,,,,,,,,,,
Hathaway/Sycamores Child/Family Servs,5100 South Eastern Avenue,Los Angeles,90040,Los Angeles,323-837-0838,Intakes,http://Hathaway-Sycamores.org,33.9887043,-118.1604996,1,,,,,,,1,,1,1,,1,,1,1,1,,,1,,1,,,,,1,,,,,,,,1,1,,,,1,1,1,1,1,1,,1,,1,,,,1,1,1,,,,,1,,,1,1,,,1,,,,,1,1,,1,1,,,1,,,,,,,,1,1,,,,,,1,1,1,,,,1,,,1,,,,,,,,,,,,,,,,,,,,,,,,,,,,,,,,,,,,,,,,,,,,,,,,,,,,,,,,,,,,,,,,,,
Penny Lane Centers,5628 East Slauson Avenue,Los Angeles,90040,Los Angeles,323-887-1917,Intake,http://www.pennylane.org,33.985546,-118.163804,1,,,,,,1,,,1,1,1,,,,1,1,,,,1,,,,,,1,,,,,,,,,1,1,,,1,1,,,,,,,,,,,,,1,1,,,,,,,,,1,,,1,,,,,,1,,,1,,,,,,,,,,1,,,,,1,,,1,1,1,,,,1,,,,,,,,,,,,,,,,,,,,,,,,,,,,,1,,,,,,,,,,,,,,,,,,,,,,,,,,,,,,,,,,,,,,,,
Didi Hirsch Mental Health Services,1328 West Manchester Avenue,Los Angeles,90044,Los Angeles,323-778-9593,Intake,http://www.didihirsch.org,33.95962,-118.2992751,1,,,,,,1,,,1,1,1,1,1,1,1,1,,,1,1,,,,,,1,,,,,,,1,1,1,,,,,,,,,,,,,1,,,1,,1,,,,,,,,,,,,,,,,,,,1,,,,,1,1,1,,1,,,,1,1,1,1,,,,,1,1,1,1,,,1,,,1,,,,,,,,,,,,,,,,,,,,,,,1,1,1,,,,,,,1,,,,,,,,,,,,,,,,,,,,,,,,,,,,,,,,,,
Pacific Clinics,66 Hurlbut Street,Pasadena,91105,Los Angeles,626-441-4221,Intake,http://www.pacificclinics.org,34.129707,-118.151742,1,,,,,,,1,,1,1,1,1,,,1,1,,,1,,1,,,,,1,,,,,,,,1,1,,,,1,,,,,1,,,,,,,,1,1,1,,,,,,1,,,1,1,,,,1,,,1,1,,1,,,,1,1,1,,,,,1,1,1,,,,1,1,1,1,1,1,,,1,,,1,,,,,,,,,,,,,1,,1,1,1,1,1,1,1,1,1,1,1,,,,,,,,,,,,,,,,,,,1,,,,,,,,,,,,,,,,,,,,,,
Center for Discovery,8484 Wilshire Boulevard,Beverly Hills,90211,Los Angeles,844-546-2614,,http://centerfordiscovery.com/locations/beverly-hills-outpatient/,34.064733,-118.3756728,1,,,,,1,,,,1,1,1,1,1,1,1,1,1,,,,1,,,,1,,,,,,,,1,,,,1,,,,,,,,,,,,,,,,,,1,,,,,,,1,,,,1,,,1,,,1,,,,1,,1,,,,,,,,,,,,,,,1,1,1,,,1,,,,1,,,,,,,,,,,,,,,,,,,,,,,,,,,,,,,,,,,,,,,,,,,,,,,,,,,,,,,,,,,,,,,,,,
Huntington Hospital,100 West California Boulevard,Pasadena,91105,Los Angeles,626-397-2300,Intake,http://www.huntingtonhospital.com,34.1325954,-118.1525463,1,1,,,,,,,,,,1,,1,,,,1,,1,1,,,1,,1,1,,,,,,,1,1,1,1,1,,,,,,,,,,,1,1,,,1,,1,,,,,,1,,,,1,,,,,,,,1,,,1,1,,1,,,,,1,1,,1,,,,,1,,,1,1,1,,,1,,,,,1,,1,1,,,,1,1,1,1,1,,,,1,1,,1,,1,,1,1,,,,,1,,,,,1,,,,,,,,,,,,,,,,,,,,,,,,,,,,,,,
Didi Hirsch Mental Health Services,1233 South La Cienega Boulevard,Los Angeles,90035,Los Angeles,310-855-0031,Intake,http://www.didihirsch.org,34.054749,-118.376557,1,,,1,,,,,,1,1,1,1,1,1,1,1,1,,1,,1,,,1,,,,,,,,,,1,1,1,,,,,,,,,,,,1,,,,,,,1,,,,1,1,1,1,,1,,1,,1,,,,1,,1,,1,1,1,1,1,,,1,1,1,,1,1,1,,1,1,,1,1,,,,1,,,1,,1,,,1,,,,,,,,1,,,,1,1,1,1,,,1,1,,,,,,,,,,,1,,,1,,1,,,,,,,,,,,,,,,,,,,,,,,,,,
Alcott Center for Mental Health Servs,1433 South Robertson Boulevard,Los Angeles,90035,Los Angeles,310-785-2121,,http://www.alcottcenter.org,34.0537438,-118.3841878,1,,,,,,,1,,1,1,1,1,1,1,1,1,1,,1,,1,,,,,1,,,,,,,,1,1,,,,1,,,,,1,,,,,,,1,,1,1,,,,,1,1,,,,1,,,,,,,1,1,,,,,,1,1,,1,,,,1,1,1,,1,,,,,1,1,1,,,1,,,1,,1,,1,1,,,,,,,1,1,1,,,1,,1,1,1,1,1,1,1,,,,,1,,,1,,,,,,,,,,,,,1,,,,,,,,,,,,,,,,,,,,
Jewish Family Service of Los Angeles,8838 West Pico Boulevard,Los Angeles,90035,Los Angeles,310-247-0864 x218,Intakes,http://www.jfsla.org,34.0547214,-118.3847711,1,,,,,,1,,,1,1,1,1,,,,1,,,1,,,1,,,,1,,,,,,,1,1,1,1,1,,1,,,,,1,,,,,,,,,1,,,,,,,1,,1,,,,,,,,,1,1,,,,,,1,,,,,,,1,,1,,,,,,1,1,1,1,,,1,,,,,,,,,,,,,,,,,,,,,,,,,,,,,,,,,,,,1,,,,,,,,,,,,,1,,,,1,,,,,,,,,1,,,,,,,
Didi Hirsch Mental Health Services,323 North Prairie Avenue,Inglewood,90301,Los Angeles,310-677-7808 x2158,Intake,http://didihirsch.org,33.9663825,-118.3442772,1,,,,,,1,,,1,1,1,1,,1,,1,,,,1,,,,,,1,,,,,,,1,1,1,,,,1,,,,1,1,,,,1,,,,,1,,,,,,,,,1,1,,,1,,,,,,1,,,1,,,1,,,,,,,1,,1,,,,,,1,,,,,,1,,,,,,,,,,,,,,,,,,,,,,,1,,,1,1,,,,,,,,,,,,,,,,,,,,,,,,,,,,,,,,,,,,,,,,,,
San Gabriel Valley Medical Center,438 West Las Tunas Drive,San Gabriel,91776,Los Angeles,626-300-7300,,http://www.sgvmc.com/,34.100917,-118.1055926,1,1,,,,,,,,1,,1,,,,,,1,,,1,,,1,,,,,,,,,,,1,1,,1,,,,,,,,,,,1,,,,1,,,,,,,,1,,,,,,,,,,,,1,,,,,,,,,,,1,,,1,,,,,,,,,,1,,1,,,,,,,,,,,,,,,,,,,,,,,,,,,,,,,,,,,,,,,,,,,,1,,,,,,,,,,,,,,,,,,,,,,,,,,
CAST Centers,630 North Doheny Drive,West Hollywood,90069,Los Angeles,310-873-3935,Intake,http://www.castcenters.com,34.0820416,-118.3895426,1,,,,,1,,,,1,1,1,1,1,,1,,1,,,,1,,,,1,1,,,,,,,1,,,,1,,,,,,,,,,,,,,,,,1,1,,,,,,,,,,,,,,,,,1,,,,,,1,,,,,,,,,,,,,,,,1,1,1,1,1,,,,1,,,,,,,,,,,,,,,,,,,,,,,,,,,,,,,,,,,,,,,,,,,,,,,,,,,,,,,,,,,,,,,,,,
Uplift Family Services,3680 East Imperial Highway,Lynwood,90262,Los Angeles,323-769-7174,Intake,http://www.upliftfs.org/,33.9318538,-118.2009874,1,,,,,,1,,,1,1,,1,,1,,1,1,,1,1,,,,,,1,,,,,,,,1,,1,1,,1,,,,,1,,,,1,,,,1,1,,,,,,,,,1,1,,,1,,,,,,1,,1,,,,1,,,,,,,1,,,,,,,,1,1,1,,,,1,,,,,,,,1,,,,,,,,1,,,,1,,1,1,,1,1,1,1,,,,,1,1,,1,,,,,,,,,,,,,,,,,,,,,,,,,,,,,,,,,
Aviva Family and Childrens Services,3680 East Imperial Highway,Lynwood,90262,Los Angeles,323-876-0550,,http://www.aviva.org/,33.9318538,-118.2009874,1,,,,,,1,,,1,1,1,1,,1,,1,,,,,1,,,,,1,,,,,,,1,1,,1,1,,1,1,,,,,1,1,,1,,1,1,,1,,1,,,,,,,1,1,,,1,,1,,,,1,,,,,,1,,,,,,,1,,,,,,,,1,1,,,,,1,,,,,,,,,,,,,,,,,,,,,,,,,,,,,,,,,,,,1,,,,,,,,,,,,,,,,,,,,,,,,,,,,,,,,,
Insight Treatment Programs,769 North Orange Grove Boulevard,Pasadena,91103,Los Angeles,800-599-8820,Intake,http://www.insighttreatment.com,34.1564572,-118.1540736,1,,,,,,1,,,1,1,1,1,1,1,1,1,1,,1,1,,,,,1,1,,,,,,,1,,,,1,1,,,,1,,,,,,1,,,,,,1,1,,,1,,,,1,1,,,1,,1,1,1,1,1,,1,1,,1,1,,1,,,,,1,1,1,,,,,,1,1,,,,1,,,,1,,,,,,,,,,,,,,,,,,,,,,,,,,,,,,,,,,1,1,,,,,,,,,,,,,,,,,,,,,,,,,,,,,,,
Drew Child Development Corporation,3737 Martin Luther King Jr Boulevard,Lynwood,90262,Los Angeles,323-249-2950 x2940,Intakes,http://www.drewcdc.org,33.9288026,-118.2002791,1,,,,,,1,,,1,1,1,1,,,,1,,,,1,,,,,,1,,,,,,,,1,1,,,,,,,,,1,,1,,1,1,,,,1,,,,,,,1,,1,1,,,1,,1,,,,1,,,1,,,1,,,,,,,1,,1,,,,,,1,1,1,,,,1,,,1,,,,,,,,,,,,,,,,,,,,,,,,,,,,,,,,,,,,,,,,,,,,,,,,,,,,,,,,1,,,,,,,,,,
Southern California Hlth/Rehab Prg,2620 Industry Way,Lynwood,90262,Los Angeles,310-627-4566 x2713,,http://www.scharpca.org,33.9233014,-118.2258901,1,,,,,,1,,,1,1,1,1,,1,1,1,,,1,1,,,,,,1,,,,,,,1,1,1,1,,,,1,,,,1,,,,,,1,,,1,1,,,,,,,,1,1,1,,1,,1,,,1,1,,,1,,,1,1,,,,,,1,1,1,1,1,,1,,1,1,1,1,,,1,,,1,,,,1,1,,,,,,,,1,,1,1,,,1,1,1,1,1,1,1,,,,,,,,,,1,,,,,,,,,,,,,,,,,,,,,,,,,,,,,,,
Fuller Psychological and Family Serv,180 North Oakland Avenue,Pasadena,91101,Los Angeles,626-584-5555,,http://www.fuller.edu/fpfs/,34.1491846,-118.1394556,1,,,,,,1,,,1,1,1,1,,1,,1,,,1,1,,,,,,1,,,,,,,1,,,,1,,,,,,,,,,,,,1,,,1,,,,,,,,,,,,,,,,,,,,,,1,,,1,,,,,,,,,1,,,,,,1,1,1,1,,,1,,,,,,,,,,,,,,,,,,,,,,,,,,,,,,,,,,,,1,,,,,,,,,,,1,,,,,,,,,,,,1,,,,,,,,,,
Southern California Hosp/Culver City,3828 Delmas Terrace,Culver City,90232,Los Angeles,310-836-7000 x6611,Intake,http://,34.0232001,-118.3969128,1,1,,,,,,,,1,,1,1,1,,1,1,1,,1,,1,,1,,,1,,,,,,,1,1,1,1,1,,1,,,,,,,,,,1,,,1,,1,,,,,,1,,,,1,,,,,,1,1,1,1,1,,1,1,,1,,1,1,1,1,1,1,1,,1,,1,,,1,1,1,,1,,,,1,,1,,1,1,1,1,1,1,1,1,1,1,1,,1,1,1,1,1,,1,1,1,1,,,,,1,,,,,,1,1,1,1,1,,,,,,,,,,,,,,,,,,,,,,,,,,
Five Acres Boys and Girls Aid Soc of,867 North Fair Oaks Avenue,Pasadena,91103,Los Angeles,626-798-6793,Intake,http://www.5acres.org/community-based-services/,34.1608849,-118.1508967,1,,,,,,1,,,1,1,,1,,1,,1,1,,1,1,,,,,,1,,,,,,,,1,,,1,,1,1,,,,,,,,,,,,1,1,,1,,,,,,,1,1,,,,,1,,,,1,,,,,,1,,,,,,,1,,1,,,,,,1,1,,,,,1,,,,,,,,,,,,,,,,,,,,,,,,,,,,,,,,,,,,,,,,,,,,,,,1,,,,,,,,,,,,,,,,,,,,,,
Didi Hirsch Mental Health Services,1007 Myrtle Avenue,Inglewood,90301,Los Angeles,310-412-4191,Intakes,http://www.didihirsch.org/,33.9506527,-118.3497789,1,,,1,,,,,,1,1,1,1,1,1,1,1,1,,1,,1,,,1,,,,,,,,,,1,1,1,,,,,,,,,,,,1,,,1,,,,1,,,,1,1,1,1,,1,,1,,1,,,,1,,1,,1,1,1,1,1,,,1,1,1,,1,1,1,,1,1,,1,1,,,,1,,,1,,1,,,1,,,,,,,,1,,,,1,1,1,1,,,1,1,,,,,,,,,,,1,,,1,,1,,,,,,,,,,,,,,,,,,,,,,,,,,
Heritage Clinic,447 North El Molino Avenue,Pasadena,91101,Los Angeles,626-577-8480,Intake,http://www.heritageclinic.org,34.1536282,-118.1372917,1,,,,,,1,,,1,1,1,1,1,1,1,1,,,1,,1,,,,,1,,,,,,,1,1,1,,1,,,,,,,1,,,,,,,,,1,,,,,,1,1,,,,1,1,,,,,,1,1,,,1,,,1,1,,,,,,1,,1,,1,,,,,,1,1,,,1,,,1,,,,,,,,,,,,,,,,,,,,,,,,,,,,,,,,,,,,,,,,,,,,,,,,,,,,,,,,,,1,,,,,,,,
View Heights Convalescent Hospital,12619 Avalon Boulevard,Los Angeles,90061,Los Angeles,323-757-1881,,http://www.viewheights.com,33.918282,-118.265647,1,1,,,,,,,,1,,1,1,1,1,1,1,1,,,,1,,1,,,,,,,,,,1,1,1,1,1,,1,,,,,1,,,1,,,,,,1,1,,1,,,,,,1,,1,,,,,,1,,,1,,,1,,1,,1,1,,,,1,,1,,1,,,,,1,1,,,1,,,,1,,1,1,1,1,1,1,,,,,,,,,,,,,,,,,,,,,,,,,,,,,,,,,,,,,,,,,,,,,,,,,,,,,,,,,,,
Counseling4Kids,601 South Glenoaks Boulevard,Burbank,91502,Los Angeles,818-441-7800,,http://www.counseling4kids.org,34.179083,-118.3013075,1,,,,,,,1,,1,1,1,1,1,1,1,1,,,1,,1,,,,,1,,,,,,,1,1,,,,,,1,,,,1,,,,,,,,,1,1,,,,,,,,1,1,,,1,,,,,,1,,,1,,,1,,,,,,,1,,,,,,,,1,1,,,,,1,,,1,,1,,,,,,,,,,,1,,1,1,1,,1,1,1,,1,1,1,,,,,,,,,,1,,,,,,,,,,,1,,,,1,,,,,,,,,,1,,,,,,
Hathaway/Sycamores Child/Family Servs,851 North Oakland Avenue,Pasadena,91104,Los Angeles,626-685-2197,Intakes,http://Hathaway-Sycamores.org,34.1602695,-118.140749,1,,,,,,,1,,1,1,,1,,1,1,1,,,1,,1,,,,,1,,,,,,,,1,1,,,,1,1,1,1,1,1,1,1,,1,,,,1,1,1,,,,,1,,,1,,1,,1,,1,,,1,1,,1,1,,,1,,,,,,,,1,1,,1,,,1,1,1,1,,,,1,,,1,,,,,,,,,,,,,,,,,,,,,,,,,,,,,,,,,,,,,,,,,1,,,,,,,,,,,,,,,,,,,,,,,,,
Comprehensive Psychiatric Services,6167 Bristol Parkway,Culver City,90230,Los Angeles,424-331-5604,,http://,33.9849916,-118.390842,1,,,,,,1,,,1,1,1,1,1,1,1,1,1,1,1,1,,,,,,1,,,,,,,1,,1,,1,1,,,,,,,,,1,,1,1,,,1,1,1,1,1,1,1,1,1,,1,,1,1,1,1,,1,,,,,1,,,,,,,,,,,1,1,,,,,,1,1,1,1,,1,,,,1,,1,1,1,1,1,1,1,1,1,1,1,1,1,1,1,1,1,1,1,1,1,1,1,1,1,,1,,1,,,,,,,,,,,1,,,1,1,1,1,,,1,1,,1,,,,,1,1,1,,,,,,
Vista Del Mar Child and Family Servs,3200 Motor Avenue,Los Angeles,90034,Los Angeles,310-836-1223,Intake,http://www.vistadelmar.org,34.0314858,-118.4104719,1,,1,,,,,,,1,1,1,1,1,1,,1,1,,,1,,,,1,,,,,,,,,1,1,1,1,1,1,1,1,1,1,1,1,1,1,,,,,,,,,,,,,,,,,1,,,,,,,,1,1,,,,1,1,1,,,,,,,1,,1,1,,,,1,1,,,,1,,1,,,1,,,,,,,,,,,,,1,,,,1,,1,1,1,1,1,1,1,,,,,,,1,1,,,,1,1,1,1,,,,,,,,,,,,,,,,,,,,,,,,,,
Vista Del Mar Outpatient Center,3200 Motor Avenue,Los Angeles,90034,Los Angeles,310-836-1223 x500,,http://www.vistadelmar.org,34.0314722,-118.4104764,1,,,,,,1,,,1,1,1,1,,,,1,,,1,1,,,,,,1,,,,,,,1,,1,,1,,1,1,,,,1,,,,,,1,,,1,,,,,,,,,1,1,,,1,,1,,,,1,,,,,,1,,,,,,,1,,,,,,,,1,1,,,,,1,,,1,,,,,,,,,,,,,1,,,,,,,,,,,1,1,,,,,,,,1,,,,,,,,,,,,,1,,,,,,,,,,,,,,,,,,,,
Didi Hirsch Mental Health Services,4760 Sepulveda Boulevard,Culver City,90230,Los Angeles,310-390-6612,Intakes,http://www.didihirsch.org/,34.001581,-118.403787,1,,,,,,1,,,1,1,1,1,1,1,1,1,1,,1,1,,,,,,1,,,,,,,1,1,1,,,,,,,,,,,,,1,,1,1,1,1,1,,,,,,1,,1,,1,,1,,1,,,1,1,,1,1,1,1,1,1,1,1,,,,1,1,1,1,,,1,1,1,1,1,1,,,1,,,1,,1,,1,1,1,1,1,1,1,1,1,1,1,1,1,1,1,1,1,1,1,1,1,1,,,,,1,1,,,,,,,,,,,,,,,1,,,,,,,,,,,,,,,,,,,,
Ketamine Clinics of Los Angeles,6801 Park Terrace,Los Angeles,90045,Los Angeles,310-270-0625,,http://www.ketamineclinics.com,33.9776679,-118.3930786,1,,,,,,1,,,,,,,,,,,,,,1,,,,,,1,,,,,,,1,,,,,,,,,,,,,,,,,,,,1,,,,,,,,,,,,,,,,,,,,,,,,,,,,,,,,,,1,,,,,,1,1,1,1,,1,,,,1,,,,,,,,,,,,,,,,,,,,,,,,,,,,1,,,,,,,,,,,,,,,,,,,,,,,,,,,,,,,,,,,,,,
Starview Community Services and,9040 Telstar Avenue,El Monte,91731,Los Angeles,626-774-5809,Intake,http://www.starsinc.com,34.0684642,-118.0697433,1,,,,,,1,,,1,1,1,1,,1,,1,,,1,,1,,,,,1,,,,,,,,1,,,,,,1,1,,,1,,,,,,,,,1,,,,,,,,,,,,,,,,,,1,1,,,,,,1,,,,,,,1,,,,,,,,1,1,,,,1,,,,1,,,,,,,,,,,,,,,,,,,,,,,,,,,,,,,1,,,,,,,,,,,,,,,,,,,,,,,,,,,,,,,,,,,
BHC Alhambra Hospital,4619 North Rosemead Boulevard,Rosemead,91770,Los Angeles,626-286-1191,Intake,http://www.bhcalhambra.com,34.088669,-118.073856,1,1,,,,,,,,,,1,1,1,1,1,1,1,,1,,1,,1,1,1,1,,,,,,,1,1,1,,1,1,,,,,,,,,1,1,1,,,1,,,,,,,,,,,1,1,,,,,1,,1,1,1,,1,,,,,1,,,,,1,,1,,,,,,,,,,1,1,,,,1,,,,,,,,,,,,,,,,,,,,,,,,,,,,,,,,,,,,,,,,,,,,,,,,,,,,,,,,,,,,,,,,,,
Airport Marina Counseling Services,7891 La Tijera Boulevard,Los Angeles,90045,Los Angeles,310-670-1410 x101,Intake,http://www.airportmarina.org,33.965452,-118.385675,1,,,,,,1,,,1,1,1,1,,,,,,,,1,,,,,,1,,,,,,,1,,,,,,,,,,,,,,,,,,,,1,,1,,,,,,,,,,,,,,,,,,,,1,,,,,,,,,,,,,,,,,,1,1,1,1,,,1,,,,,,,,,,,,,,,,1,,,,,,,1,,,1,1,,1,,,,,,,,,,,,,,,,,,,,,,,,,,,,,,,,,,,,,,,,
Comprehensive Psychiatric Services,2335 East Colorado Boulevard,Pasadena,91107,Los Angeles,833-277-0071,,http://,34.1464484,-118.1026207,1,,,,,,1,,,1,1,1,1,1,1,1,1,1,1,1,1,,,,,,1,,,,,,,1,,1,,1,1,,,,,,,,,1,,1,1,,,1,1,1,1,1,1,1,1,1,,1,,1,1,1,1,,1,,,,,1,,,,,,,,,,,1,1,,,,,,1,1,1,1,,1,,,,1,,1,1,1,1,1,1,1,1,1,1,1,1,1,1,1,1,1,1,1,1,1,1,1,1,1,,1,,1,,,,,,,,,,,1,,,1,1,1,1,,,1,1,,1,,,,,1,1,1,,,,,,
Pacific Clinics,9353 East Valley Boulevard,Rosemead,91770,Los Angeles,626-287-2988,,http://www.pacificclinics.org,34.0816653,-118.0651244,1,,,,,,,1,,1,1,1,1,,,1,1,1,,1,,1,,,,,1,,,,,,,,1,1,1,,,1,1,1,,,1,1,,,1,,,1,,,,,,,,,1,,,1,1,,,,1,,1,1,1,,1,1,,,1,1,1,1,,,,1,1,1,1,,,,,,,,,,,1,,,,,,,,,,,,,,,,,,,,,,,,,,,,,,,,,,,,,,,,,,,,,,,1,,,,,,,,,,,1,1,,,,,1,,,,,
Verdugo Hills Hospital,1812 Verdugo Boulevard,Glendale,91208,Los Angeles,818-952-2270,,http://www.uscvhh.org,34.2045351,-118.216049,1,1,,,,,,,,1,,1,,,1,1,1,1,,1,1,,,1,,,,,,,,,,1,,1,,1,,,,,,,,,,,1,1,,,1,1,,1,1,,1,,1,1,1,,,1,1,1,,,,,,,,1,1,,1,,,1,1,1,,,1,1,,,,1,,,,,1,,1,,,,1,,1,,,1,,,,,,,,1,,,,,,1,1,,,1,1,1,,,,,1,1,,1,,1,,,,,,,,,,,1,,,,,,,1,,1,1,,,1,1,,,,,,
Verdugo Hills Hospital,1812 Verdugo Boulevard,Glendale,91208,Los Angeles,818-949-4011,Intakes,http://uscvhh.org,34.2045351,-118.216049,1,,,,,1,,,,1,,1,1,1,,1,1,,,1,1,,,,,1,,,,,,,,1,,1,,1,,,,,,,,,,,,,,,1,1,,1,1,,1,,1,,1,,,1,,1,,,,,,,,,1,,1,,,,,,,,,1,,,,,,,,,1,,1,,,,1,,,,,,,,,,,,,,,,,,,,,,,,,,,,,,,,,1,,,,,,,,1,,,,,,,,,,,,,,,,,,,,,,,,,
Pacific Asian Counseling Services,8616 La Tijera Boulevard,Los Angeles,90045,Los Angeles,310-337-1550,Intake,http://www.pacsla.org,33.95917,-118.391574,1,,,,,,1,,,1,1,,1,,1,1,1,1,,1,,,1,,,,1,,,,,,,,,,1,,,1,,,,1,1,1,1,,1,,,,,1,1,,,,,1,1,,,1,1,,1,,1,,,1,1,,1,1,,1,1,1,,,,,,1,1,1,1,1,1,,1,1,1,1,1,,,1,,,1,,,,,,,1,,,,,,1,,,,1,,,1,1,1,1,1,,,,,,,1,,1,,,,,,,,1,,,1,,,,,,,,,1,,1,1,,,,1,1,,,,,
Aurora Las Encinas Hospital,2900 East Del Mar Boulevard,Pasadena,91107,Los Angeles,626-356-2650,Intakes,http://www.lasencinashospital.com,34.140786,-118.09133,1,1,,,,,,,,1,1,1,1,,1,1,1,1,,1,,1,,1,,1,1,,,,,,,1,1,1,1,1,1,1,1,1,1,1,1,1,1,1,1,1,,,1,1,1,1,1,1,1,1,1,1,,1,1,,1,,1,,,1,1,1,,,1,1,1,,,,,1,1,1,1,1,,,,1,,1,1,1,1,1,1,,,,1,,1,,1,1,1,1,,1,1,1,1,1,1,1,1,1,,1,1,1,,1,1,1,,,,,1,1,,,1,1,1,1,1,1,1,,,,1,,,,,,,,,,,,,,,,1,,,,,,
Pacific Clinics,2550 East Foothill Boulevard,Pasadena,91107,Los Angeles,626-744-5230 x2404,Intake,http://,34.1496063,-118.097957,1,,,,,,1,,,1,1,1,1,,1,1,1,,,1,1,,,,,,1,,,,,,,,1,1,1,,,1,1,1,,1,1,,,,1,,,1,1,1,1,,,,,,,,1,1,,,1,,1,,,1,1,,,1,,,1,1,,,,,,1,,1,,,,,,1,1,,,,,1,,,1,,,,,,,,,,,,,,,,,,,,,,,,,,,,,,1,1,,,,,,,,,,,,,,,,,,,,,,,,,,,,1,,,,,,,
Prototypes Program of HealthRIGHT 360,2650 East Foothill Boulevard,Pasadena,91107,Los Angeles,626-577-2261,Intakes,http://www.prototypes.org,34.149613,-118.0956708,1,,,,,,,1,,1,1,1,1,1,1,1,1,1,,1,1,,,,,,1,,,,,,,,1,,,,,1,,,,,1,,,,1,,,1,,1,1,1,,,,,,,1,1,1,,,,,,,1,1,,1,1,,,1,,,,,,,1,1,1,,,,,1,1,1,1,1,,,1,,,1,,,1,,,,,,,,,,1,1,1,1,1,1,1,1,1,1,1,1,1,,,,,1,,,,,1,,,,,,,,,1,,,,,,,,,,,,,,,,,,,,,,
Coastal Asian Pacific Islander Family,14112 South Kingsley Drive,Gardena,90249,Los Angeles,310-217-7312,,http://dmh.lacounty.gov/,33.9029285,-118.3039273,1,,,,,,1,,,1,,1,1,,1,1,1,1,,1,1,,,,,,1,,,,1,,,1,1,1,,,,1,,,,,1,,,,1,,1,1,,1,1,,,,,1,1,,1,1,1,,1,,1,1,,,1,,1,1,1,,1,,,,,,,1,,1,1,1,,,1,1,1,1,1,,,,,,1,,,,,1,1,1,,,1,1,1,1,1,1,1,1,1,1,1,,1,1,1,1,,,,,,1,,,,,,,,,,1,,,1,,,,,,,1,1,,,1,1,,,,1,1,,,,,
Hathaway/Sycamores Child/Family Servs,2933 North El Nido Drive,Altadena,91001,Los Angeles,626-243-9043,Intakes,http://hathaway-sycamores.org,34.1960124,-118.1658889,1,,1,,,,,,,1,1,1,1,,1,1,1,,,1,,1,,,1,,1,,,,,,,,1,1,,,,1,1,1,1,1,1,,1,,1,,,,1,1,1,,,,,1,,,1,1,,,1,,,,,1,1,,1,1,,,1,,,,,,,,1,1,,,1,,,1,,,,,,1,,,1,,,,,,,,,,,,,,,,,,,,,,,,,,,,,,,,,,,,,,,,,,,,,,,,,,,,,,,,,,,,,,,,,,
Bridges to Recovery,10201 Charing Cross Road,Los Angeles,90024,Los Angeles,310-275-4620,,http://www.bridgestorecovery.com,34.079219,-118.4305523,1,,,1,,,,,,1,1,1,1,1,,1,1,1,,1,,1,,,1,,,,,,,,,1,,,,1,,,,,,,,,,,,,,,,,,,,,,,,,1,,,,1,,,,,,1,,,,1,,1,,,1,,1,1,,1,1,,,,1,,,1,1,1,1,1,,,,1,,,,,,,,,,,,,,,,,,,,,,,,,,,1,,,,,,,,,,,,,1,,,,,,,,,,,,,,,,,,,,,,,,,,
Compton Family Mental Health Services,921 East Compton Boulevard,Compton,90221,Los Angeles,310-668-6800,,http://dmh.lacounty.gov,33.8963309,-118.2130965,1,,,,,,1,,,1,1,1,1,,1,1,1,,,1,,1,,,,,1,,,1,,,,1,1,1,,,,,,,,1,1,,,,,1,1,1,,1,1,1,1,,,1,1,1,1,1,1,1,1,,1,,,,1,,,,,,1,1,,,,,,1,1,1,,,,,1,1,1,1,1,,,,,,1,,,,,,,,,,,,,,,,,,,,,,,,,,,,,,,,,,,1,,,,,,,,,,,,,,,,,,,,,,,,,,,,,,,
Resilience Treatment Center,10780 Santa Monica Boulevard,Los Angeles,90025,Los Angeles,800-693-9100,,http://resiliencetreatment.com,34.050292,-118.4339714,1,,,,,1,,,,1,1,1,1,1,,,,,,1,,1,,,1,1,1,,,,,,,1,,,,1,,,,,,,,,,,,,,,,,,,,,,,,,,,1,,,,,,,,,,,,,,,,,,,,,,,,,,,,,,1,1,1,,1,,,,1,,1,,,,,,1,1,1,,1,1,,,,1,,1,1,,1,1,1,,,,,,,,,,,,,,,,,,,,,,,,,,,,,,,,,,,,,,,,,,
Discovery Mood and Anxiety Program,9844 Pangborn Avenue,Downey,90240,Los Angeles,866-457-5205,,http://discoverymood.com/locations/downey/,33.9446129,-118.1026357,1,,1,,,,,,,1,1,1,1,1,1,1,1,1,,,1,,,,1,,,,,,,,,1,,,1,1,1,1,1,,1,1,1,,,,,,,,,,,1,,,,,,,1,1,,,1,,,,,,,,,,1,,1,,,1,,,,,,,,,,,,1,,,,1,1,,,,,,,,,,,,,,,,,,,,,,,,,,,,,,,,,,,,,,,,,,,,,,,,,,,,,,,,,,,,,,,,,,,,,,
Silicon Beach Treatment Center,8929 South Sepulveda Boulevard,Los Angeles,90045,Los Angeles,833-527-3422,,http://www.siliconbeachtx.com,33.9549428,-118.3965314,1,,,,,,,,1,1,1,1,1,1,1,1,1,1,,1,,1,,,,1,1,,,,,,,1,,,,1,,,,,,,,,,,1,,,,,,1,1,1,,,,,1,1,,,,1,,,1,1,1,1,,1,1,1,1,1,1,,1,,,1,1,,1,1,,,,1,,1,1,1,,1,,,,1,,,,,,,,,,,,,,,,,,,,,,,,,,,1,,,,,,,1,,1,1,1,1,1,,,,,,,,,,,,,,,,,,,,,,,,,,
Edelman Westside Mental Health Ctr,11080 West Olympic Boulevard,Los Angeles,90064,Los Angeles,310-966-6500,Intake,http://,34.0401449,-118.4374396,1,,,,,,1,,,1,,1,1,1,,1,1,,,1,,1,,,,,1,,,,1,,,1,1,1,1,,,1,,,,,1,,,,1,1,,,1,1,1,,,,,,1,,1,,1,,1,,1,,,,1,,1,,1,1,1,1,1,,,1,1,,1,1,1,1,,1,,,1,1,1,,,,,,1,,1,,1,1,1,1,1,,1,,1,1,1,1,1,1,1,1,1,,1,1,1,1,,,,,,1,,,,,1,1,1,,,,,,,,1,,,,1,,,,,,1,,,1,,1,,,,,
Westside Treatment,11150 West Olympic Boulevard,Los Angeles,90064,Los Angeles,888-995-7687,,http://www.westsidetreatment.com,34.039169,-118.4388699,1,,,,,,,,1,1,1,1,1,1,1,1,1,1,,1,,1,,,,1,1,,,,,,,1,,,,1,,,,,,,,,,,,,,,,,1,1,,,,,1,,1,,1,,1,,1,,1,1,1,,,,1,,1,1,,,,,,,,,,,,,,,1,1,1,,1,,,,1,,1,,,,1,1,,,,,,,,1,1,1,1,1,1,1,1,1,1,1,,,,,,,,,1,1,,,,,,1,,,,,,,,,,,,,,,,,,,,,,,,,
Clearview Treatment Programs,1334 Westwood Boulevard,Los Angeles,90024,Los Angeles,800-573-0770,,http://www.clearviewtreatment.com,34.05639,-118.441993,1,,,,,,1,,,1,1,1,1,1,1,1,1,,,,,1,,,,1,1,,,,,,,1,,,,1,,,,,,,,,,1,,,1,,,,1,,,,,,,,1,,,,1,,,,,,1,,,,1,,,,,,,,,,,,,,,,,,1,1,1,,1,,,,,,,,,,,,,,,,,,,,,,,,,,,,,,,,,,,,,,1,,,,,,1,,,,,,,,,,,,,,,,,,,,,,,,,,
Resnick Neuropsychiatric Hospital at,150 Westwood Plaza,Los Angeles,90095,Los Angeles,310-825-0511,Intake,http://www.uclahealth.org/resnick/,34.0727933,-118.4447896,1,1,,,,,,,,1,,1,1,1,1,1,,1,1,1,1,,,1,,1,1,,,,,,,1,1,1,1,1,1,1,1,1,,1,1,,,1,,,,,1,1,,,,,,,,,,,,1,,,,1,,,1,,,,,1,1,,1,1,,1,1,1,1,1,,,,,,1,1,1,1,,,1,,,1,,1,,1,1,,,,,,,,,,,,,,,,,,,,,,,1,,,,,,,,,,,,,,,,,,,,,,,,,,,,,,,,,,,,,,
Pacific Clinics,11731 Telegraph Road,Santa Fe Springs,90670,Los Angeles,562-942-8256,Intake,http://,33.9470957,-118.0832347,1,,,,,,1,,,1,1,1,1,,1,1,1,,,1,,1,,,,,1,,,,,,,,,1,1,,,1,,,,1,1,,,,,,,1,1,1,1,1,,,,,,,1,1,1,,1,,1,,,1,1,,1,1,,1,1,1,,1,,,,1,1,1,1,1,1,1,1,1,1,,,,,1,,,1,,,,,1,1,,,,,,,1,,,,,1,1,1,1,1,1,1,,,,,,,,,,,,,,,,,,,,,,,,,,,,,,,,,,,,,,,,,,
LAT Intensive Outpatient Programs,4551 Glencoe Avenue,Marina del Rey,90292,Los Angeles,310-572-7000,,http://www.lifeadjustmentteam.com,33.9835135,-118.4336071,1,,,,,,1,,,1,,1,1,1,1,1,1,1,,1,,1,,,,,1,,,,,,,1,,,,1,,,,,,,,,,,,,,,,,1,,,,,,,,,,1,,,,,,,,,,1,1,,,,,,,,,,,1,,,,,,,,1,1,1,,1,,,,1,,,,,,,,,,,,,,,,,,,,,,,,,,1,,,,,,,,,,,,,,,,,,,,,,,,,,,,,,,,,,,,,,,,
Santa Fe Springs VA Clinic,10330 Pioneer Boulevard,Santa Fe Springs,90670,Los Angeles,562-347-2200,,http://www.longbeach.va.gov/locations/Whittier_Santa_Fe_Springs_Clinic.asp,33.9424757,-118.0813118,1,,,,,,,,,1,,1,1,,1,1,1,1,,1,,1,,,,,1,1,,,,,,,,,,1,,,,,,,,,,1,1,,,,1,,,,1,,,,,,,,,,1,1,,,,,,,,,1,,,,,,,1,1,,1,1,,,,1,,,1,1,1,,,,,1,1,,,,,,,,,,,,,,,,,,,,,,,,,,,,,,,,,,,,,,,,,,,,,,,,,,,,,,,,,,,,,,,,,,
Star View Community Services,1303 West Walnut Parkway,Compton,90220,Los Angeles,310-868-5379 x170,Intake,http://www.starsinc.com/los-angeles-county/,33.8777089,-118.2441767,1,,,,,,1,,,1,1,1,1,,1,,1,,,1,,1,,,,,1,,,,,,,,1,,1,,,1,1,1,1,1,1,,,,1,,,1,1,1,,,,,,,,,1,1,,,1,,1,,,1,1,1,,1,,,1,,,,,,,1,1,1,,,,,,1,1,1,,,1,,,,1,,,,,,,,,,,,,1,,,,,,1,1,,,1,1,,,,,,,1,,,,,,,,,,,,,,,,,,,,,,,,,,,,,,,,,,,
Discovery Mood and Anxiety Program,11911 Washington Boulevard,Whittier,90606,Los Angeles,866-457-5205,,http://discoverymood.com/locations/whittier/,33.9692961,-118.0578284,1,,1,,,,,,,1,1,1,1,1,1,1,1,1,,,1,,,,1,,,,,,,,,1,,,1,1,1,1,1,,1,1,1,,,,,,,,,,,1,,,,,,,1,1,,,1,,,,,,,,,,1,,1,,,1,,,,,,,,,,,,1,,,,1,1,,,,,,,,,,,,,,,,,,,,,,,,,,,,,,,,,,,,,,,,,,,,,,,,,,,,,,,,,,,,,,,,,,,,,,
VA Greater LA Healthcare System,11301 Wilshire Boulevard,Los Angeles,90073,Los Angeles,310-478-3711,,http://www.losangeles.va.gov,34.0546036,-118.4547279,1,,,,,,,,,1,1,1,1,1,1,1,1,1,,1,,1,,1,1,1,1,1,,,,,,1,1,1,,,1,,,,,,,,,1,1,1,,,1,1,1,1,1,,,1,1,1,1,,1,1,1,1,,,1,1,1,1,1,1,1,1,1,1,,1,1,1,1,1,1,1,1,1,,1,1,,1,1,1,,,,,1,1,,1,,1,1,,,1,1,1,1,,1,1,1,,1,1,1,1,1,1,1,1,1,,,1,1,1,,,,1,1,1,1,1,1,1,,,,,,,1,,,,,,,,,1,,,,,,,,,,
Whole Child,12225 Beverly Boulevard,Whittier,90601,Los Angeles,562-236-4695,Intake,http://www.thewholechild.org,33.9884484,-118.0462818,1,,,,,,1,,,1,1,1,1,,1,,1,,,,1,,,,,,1,,,,,,,,1,,,,,,,,,1,1,1,,,,,,,,1,,,,,,,,,1,1,,,1,,,,,,1,,,1,1,,1,,,,,,,,,,,,,,,1,,,,,,1,,,,,,,,,,,,,,,,,,,,,,,,,,,,,,,,,,,,1,,,,,,,,,,,,,,,,,,,,,,,,,,,,,,,,,
Clearview Womens Center,2474 Glyndon Avenue,Venice,90291,Los Angeles,800-573-0770,,http://www.clearviewwomenscenter.com/,33.994165,-118.447554,1,,,1,,,,,,1,1,1,1,1,1,1,1,,,,,1,,,1,,,,,,,,,1,,,,1,,,,,,,,,,1,,,,,,,,,,,,,,,1,,,,1,,,,,,1,,,,1,,,,,,,,,,,,,,,,,,1,1,1,,1,,,,,,,,,,,,,,,,,,,,,,,,,,,,,,,,,,,,,,1,,,,,,1,,,,,,,,,,,,,,,,,,,,,,,,,,
Star View Community Services,649 East Albertoni Street,Carson,90746,Los Angeles,310-436-9300,Intake,http://www.starsinc.com/star-view-community-services/tay-hot-spot/,33.8724933,-118.264311,1,,,,1,,,,,1,1,1,1,,1,,1,,,,,1,,,1,,,,,,,,,,1,,1,1,,1,1,1,1,1,1,,,,1,,,,,1,,,,,,,1,,1,1,,,1,,1,,,1,1,1,1,1,,,1,,,,,,,1,1,1,,,,,,1,1,1,,,1,,,,1,,,,,,,,,,,,,1,,,,,,1,1,,,1,1,,,,,,1,,,,,,,,,,,,,,,,,,,,,,,,,,,,,,,,,,,,
Whole Child,12417 Philadelphia Street,Whittier,90601,Los Angeles,562-692-0383,,http://www.thewholechild.org,33.9798181,-118.0441169,1,,,,,,1,,,1,1,,1,,1,,1,,,,1,,,,,,1,,,,,,,,1,,,,,,,,,1,1,1,,,,,,,,1,,,,,,,,,1,1,,,1,,1,,,,1,,,1,1,,1,,,,,,,,,,,,,,,1,1,,,,,1,,,,,,,,,,,,,,,,,,,,,,,,,,,,,,,,,,,,,,,,,,,,,,,,,,,,,,,,,,,,,,,,,,,,,
Bayfront Youth and Family Services,16444 Paramount Boulevard,Paramount,90723,Los Angeles,562-788-7252,,http://www.bayfrontyfs.org,33.8848647,-118.1597186,1,,,,,,1,,,1,1,1,1,,1,1,1,1,,1,1,,,,,,1,,,,,,,,1,,,,,,,,,,,,,,,1,,,,1,1,1,,,,1,1,,1,1,1,,1,,1,,,1,1,,1,,,,1,,,,,,,1,,1,,,,,,1,1,1,1,,,1,,,1,,,,,1,,,,,,,,1,,,,1,,,,,,1,1,1,,,,,,,,,1,1,,,,,,,,,,,,,,,,,,,,,1,,,,1,1,,,,,
Casitas Esperanza,11927 Elliott Avenue,El Monte,91732,Los Angeles,626-350-5304 x526,Intakes,http://www.bridgesrehab.org,34.0580976,-118.0259091,1,,,1,,,,,,1,,,,,,,1,,,1,1,,,,1,,,,,,,,,1,1,1,1,1,,1,1,,,,1,,,,,,,1,,1,1,,,,,,,,1,,1,,,,,,,,1,,1,,,,,1,,,,,,1,,1,,,,1,,,1,1,,,,1,,,,,,,,1,1,,,,,,,1,,1,,1,1,1,1,1,1,1,1,1,,,,,,,,,,,,,,,,,,,,,,,,,,,,,,,,,,,,,,,,,
Guidance Center,901 West Victoria Street,Compton,90220,Los Angeles,310-669-9510,,http://www.tgclb.org/,33.86779,-118.239012,1,,,,,,,1,,1,1,1,1,1,,1,1,,,1,,1,,,,,1,,,,,,,1,,,,,,1,1,,1,,1,,,,,,,,,1,,1,,,,,,,1,1,,,1,,1,,,1,1,1,,1,,,1,,,,,,,1,,,1,,,,1,1,1,1,,,,1,,,,,1,,,,,,,,,,,1,,,,1,,,1,,,1,1,1,,,,,,,,1,,,,,,,,,,,,,,,,,,,,,,,,,,,,,,,,,
Help Group,13130 Burbank Boulevard,Van Nuys,91401,Los Angeles,818-781-0360,Intake,http://www.thehelpgroup.org,34.1718143,-118.4192274,1,,,,,,,,1,1,1,1,1,1,1,,1,1,,1,,1,,,1,1,1,,,,,,,1,1,,1,,,,1,,,,,,,,,,,,1,1,,1,,,,,,,1,1,,,1,,1,1,,,1,,1,,,1,1,,,,,,,1,,,1,,,,1,1,1,1,,,,1,,,,,,,,,,,,,,,,1,,,,,,,1,,,1,1,,,,,,,,,,,1,,,,,,,,,1,,1,1,,,1,,,1,,1,,1,,1,1,,,,,,
Evolve Treatment Centers,820 Moraga Drive,Los Angeles,90049,Los Angeles,800-859-9052,,http://evolvetreatment.com/locations/bel-air-brentwood/?utm_source=SAMHSA,34.0781333,-118.4685677,1,,,,,1,,,,1,1,1,1,1,1,1,1,1,,1,1,,,,,1,,,,,,,,1,,,,1,,,,,,,,,,,,,,,,,1,,,,,,,,,1,,,,,,,,1,1,,,,,1,1,,,,,,,,,1,,,,,,1,,,,,1,,,,1,,,,,,,,,,,,,1,,1,1,,,1,1,,,1,1,1,,,,,,,,,,,,,,,,,,,,,,,,,,,,,,,,,,,,,,,,,
Arcadia Mental Health Center,330 East Live Oak Avenue,Arcadia,91006,Los Angeles,626-254-1400,,http://,34.1083648,-118.0219294,1,,,,,,,1,,1,1,1,1,1,1,1,1,1,,1,,,1,,,,1,,,,1,,,1,1,1,1,1,,,,,,1,1,1,1,,1,1,1,1,1,1,1,1,1,1,,1,1,,1,,1,,1,,1,,,1,1,,,1,1,,1,1,,,,,,1,1,1,1,,,1,1,,1,1,1,,,,1,,1,,1,,1,1,1,1,,,1,1,1,1,1,1,1,1,1,1,1,1,1,1,1,1,1,,,,1,,,1,,1,,,,,,,,,1,,,,,,,,,,,,,,,,1,,,,,,
Jewish Family Service of Los Angeles,12821 Victory Boulevard,North Hollywood,91606,Los Angeles,818-432-5025,,http://www.jfsla.org,34.186938,-118.41243,1,,,,,,1,,,1,1,1,1,,1,,1,,,1,,,1,,,,1,,,,,,,1,1,1,1,1,,1,,,,1,1,,,,,,,,,1,,,,,,,1,,1,,,,,,,,,1,1,,,,,,1,,,,,,,1,,1,,,,,,,1,1,1,,,1,,,,,,,,,,,,,,,,,,,,,,,,,,,,,,,,,,,,,1,,,,,,,,,,,,1,,,,1,,,,,,,,,1,,,,,,,
Insight Treatment Programs ,115 Main Street,El Segundo,90245,Los Angeles,800-599-8820,Intake,http://www.insighttreatment.com,33.917064,-118.416133,1,,,,,,1,,,1,1,1,1,1,1,1,1,1,,1,1,,,,,1,1,,,,,,,1,,,,1,1,,,,1,,,,,,1,,,,,,1,1,,,1,,,,1,1,,,1,,1,1,1,1,1,,1,1,,1,1,,1,,,,,1,1,1,,,,,,1,1,,,,1,,,,1,,,,,,,,,,,,,,,,,,,,,,,,,,,,,,,,,,1,1,,,,,,,,,,,,,,,,,,,,,,,,,,,,,,,
Family Service of Santa Monica,1533 Euclid Street,Santa Monica,90404,Los Angeles,310-451-9747,,http://www.vistadelmar.org/,34.021422,-118.4840013,1,,,,,,,1,,1,1,1,1,,,,1,,,1,1,,,,,,1,,,,,,,1,1,,,1,,,1,,,,1,,,,,,,,,1,1,1,,,,,1,,1,1,1,,1,,1,1,,1,1,,,1,,,1,,,,,,,,,1,,,,,,1,1,1,1,,,1,,,1,,,,,,,,,,,,,,,,,,,,,,,,,,,,,,,,1,1,1,,,,,,,,,,,,,,,,,,,,,,,,,,,,,,,,
Clear Inc,18123 Prairie Avenue,Torrance,90504,Los Angeles,877-779-1985,,http://www.clearrecoverycenter.com,33.8662157,-118.3438179,1,,,,,1,,,,1,1,1,1,1,1,1,1,1,,1,,1,,,,1,1,,,,,,,1,,,,1,,,,,,,,,,,1,,,,,,1,,,,,,,,,,,,,,1,,,,1,,1,,1,,1,,,,,,,,,1,1,1,,,,,1,1,,,1,,,,1,,,,,,,,,,,,,,,,,,,,,,,,,,1,1,,,,,,,,,,,,,,,,,,,,,,,,,,,,,,,,,,,,,,,
Counseling4Kids,20101 Hamilton Avenue,Torrance,90502,Los Angeles,310-817-2177,,http://www.counseling4kids.org,33.8482792,-118.2876517,1,,,,,,,1,,1,1,1,1,1,1,1,1,,,1,,1,,,,,1,,,,,,,1,1,,,,,,1,,,,1,,,,,,,,,1,1,1,,,,,,,1,1,,,1,,,,,,1,,,1,,,1,,,,,,,1,,,,,,,,1,1,,,,,1,,,1,,1,,,,,,,,,,,1,,1,1,1,,1,1,1,,1,1,1,,,,,,,,,,1,,,,,,,,,,,1,,,,1,,,,,,,,,,1,,,,,,
Childrens Bureau of Southern CA,460 East Carson Plaza Drive,Carson,90746,Los Angeles,310-523-9500 x202,Intake,http://www.all4kids.org,33.8458711,-118.266869,1,,,,,,1,,,1,1,1,1,,1,,1,,,1,1,,,,,,1,,,,,,,,1,,1,,,1,,,,,1,,,,,,,,,1,,1,,,,,,,1,1,,,1,,1,,,,1,,,1,,,1,,,,,,,1,,1,,,,,,1,1,,,,,1,,,1,,,,,,,,,,,,,,,,,,,,,,,,,,,,,,,,,1,,,,,,,,,,,,,,,,,,,,,,,,,,,,,,,,,
Tarzana Treatment Centers Inc,5190 Atlantic Avenue,Long Beach,90805,Los Angeles,818-996-1051,,http://www.tarzanatc.org,33.8508284,-118.1838961,1,,,,,,,,1,,1,1,1,,,1,,1,,,,1,,,,1,1,,,,,,,1,1,1,,1,,,1,1,1,1,1,1,1,,,,1,1,1,1,1,1,,,,1,,1,,,,,1,,,,,,1,1,,,,1,1,1,,,,,,1,,,1,,,,1,,1,1,1,,,1,,,,,,,,,,,,,,,,,,,,,,,,,,,,,,,,,,,,,,,,,,,,,,,,,,,,,,,,,,,,,,,,,,,,,
Southern CA Hospital at Van Nuys,14433 Emelita Street,Van Nuys,91401,Los Angeles,818-787-1511,Intake,http://sch-vannuys.com,34.1769578,-118.4475697,1,1,,,,,,,,1,1,1,1,,,,,1,,,,1,,1,,,1,,,,,,,1,1,1,,1,1,,,,,,,,,1,1,1,,,1,,,,,,,,,,,,1,,,,,,,,1,,,,1,,1,,,,,1,,1,1,1,,,,1,,,1,1,1,,1,,,,1,,1,,1,1,,1,,,,,1,1,,,,1,,1,1,1,1,1,1,1,,,,,1,,,,,,,,,,,,,,,,,,,,,,,,,,,,,,,,,,,,
Clear Inc,515 North Sepulveda Boulevard,Manhattan Beach,90266,Los Angeles,877-799-1985,,http://www.clearrecoverycenter.com,33.8824287,-118.3964532,1,,,,,1,,,,1,1,1,1,1,1,1,1,1,,1,,1,,,,1,1,,,,,,,1,,,,1,,,,,,,,,,,1,,,,,,1,,,,,,,,,,,,,,1,,,,1,,1,,1,,1,,,,,,,,,1,1,1,,,,,1,1,,,1,,,,1,,,,,,,,,,,,,,,,,,,,,,,,,,1,1,,,,,,,,,,,,,,,,,,,,,,,,,,,,,,,,,,,,,,,
Eggleston Youth Centers Inc,13001 Ramona Boulevard,Baldwin Park,91706,Los Angeles,626-214-9016,Intake,http://www.egglestonyouthcenter.org,34.0802044,-117.9897876,1,,,,,,1,,,1,1,1,1,1,1,1,1,1,,1,,1,,,,,1,,,,,,,,1,,1,,,,1,,,,1,,,,1,,,,1,1,1,1,1,,,,,1,1,1,,,1,,1,,,,1,,1,1,,,1,,,,,,,1,,1,,,,,,1,1,1,,,,1,,,1,,1,,1,1,1,1,,,1,1,1,1,,,,1,1,1,1,,,1,1,1,1,,,,,,,,1,1,,,,,,,,,,,,,,,,,,,,,,,,,,,,,,,
Family Resource Center,13001 Ramona Boulevard,Baldwin Park,91706,Los Angeles,626-373-2900,Intake,http://www.hillsides.org,34.0802044,-117.9897876,1,,,,,,1,,,1,1,1,,,1,1,1,,,1,,1,,,,,1,,,,,,,,1,,,1,,1,1,,,,1,,,,1,,,,,1,,1,,,1,,1,,1,1,1,,1,,1,,,1,1,,,1,,,,,,,1,,,1,1,1,1,,1,,,1,1,1,1,,,1,,,1,,,,,,,,,,,,,1,,,,,,1,1,,,1,1,1,,,,,,1,,,,,,,,,,,,,,,,,,,,,,,,,,,,,,,,,,,
Asian Pacific Counseling and,11050 Artesia Boulevard,Cerritos,90703,Los Angeles,562-860-8838,,http://www.apctc.org,33.872528,-118.097898,1,,,,,,1,,,1,1,1,1,,,,1,,,1,1,,,,,,1,,,,,,,1,1,1,,,,1,1,,,1,1,,,,1,,,,,1,1,,,,,,1,,1,1,1,,1,,1,,,,1,,,,,,1,1,,,,,,1,,,,,,,1,1,1,1,1,,,1,,,1,,,,,,,,,,,,,,,,,,,,,,,,,,,,,,,1,,,,1,,,,,,,,,1,,,,,,,,,,,,1,,,,1,,,,,,
Rio Hondo Mental Health Center,17707 Studebaker Road,Cerritos,90703,Los Angeles,562-402-0688,,http://dmh.lacounty.gov/,33.8702156,-118.0995573,1,,,,,,1,,,1,,1,1,1,1,1,1,1,,1,,1,,,,,1,,,,1,,,1,1,1,1,,,1,,,,1,1,,,,1,1,,,1,1,1,1,,,,,1,,1,,1,,1,,1,,,1,1,,1,,,,1,1,,1,,,,1,1,1,1,,,,,,1,1,1,,,,,,1,,1,,1,1,1,1,,,1,,1,1,1,1,1,1,1,1,1,1,1,1,1,1,,,,,,,,,,,,,,,,,,,1,,1,,,,,1,,1,,,,,,,1,,,,,,
Star View Community Services,370 South Crenshaw Boulevard,Torrance,90503,Los Angeles,310-787-1500,,http://www.starsinc.com/los-angeles-county/,33.845529,-118.3276568,1,,,,,,1,,,1,1,1,1,,1,,1,,,1,,1,,,,,1,,,,,,,,1,,1,1,,1,1,1,1,1,1,,,,1,,,1,1,1,,,,,,,,,1,1,1,,1,,1,,,1,1,1,,1,,,1,,,,,,,1,1,1,,,,,,1,1,1,,,1,,1,,1,,,,,,,,,,,,,1,,,,,,1,1,,,1,1,,,,,,,1,,,,,,,,,,,,,,,,,,,,,,,,,,,,,,,,,,,
Community Care Center,2335 Mountain Avenue,Duarte,91010,Los Angeles,626-357-3207 x225,Intake,http://,34.1227709,-117.9907026,1,,,1,,,,,,1,,1,1,1,1,1,,1,,,,1,,,1,,,,,,,,,1,,,,,,1,,,,,,,,1,,,,,,,1,1,1,,,1,,1,1,,1,,1,1,1,,,,,,,1,,1,,,,,,,,1,,,,,,,1,,1,1,1,,1,,,,1,,1,,1,1,,1,,,,,,1,,,,1,,1,1,,1,1,1,1,,,,,,,,,,1,,,,,,,,,,,,,,,,,,,,,,,,,,,,,,,
Whole Child,10155 Colima Road,Whittier,90603,Los Angeles,562-692-0383,,http://www.thewholechild.org,33.9436117,-118.0108918,1,,,,,,1,,,1,1,1,1,,1,,1,,,,1,,,,,,1,,,,,,,,1,,,,,,,,,1,1,1,,,1,,,,,1,,,,,,,,,1,1,1,,1,,1,,1,1,1,,,1,1,,1,1,,,,,,,,,,,,,,1,1,1,,,,1,,,,,,,,,,,,,,,,,,,,,,,,,,,,,,,,,,,,1,,1,,,,,,,,,,,,,,,,,,,,,,,,,,,,,,,
Aviva Family and Childrens Services,5900 Sepulveda Boulevard,Van Nuys,91411,Los Angeles,818-980-3200,,http://www.aviva.org,34.1775417,-118.4655644,1,,,,,,1,,,1,1,1,1,1,,,1,,,,,1,,,,,1,,,,,,,1,1,,1,1,,1,1,,,,,1,1,,1,,1,1,,1,,1,,,,,,,1,1,,,1,,1,,,,1,,,1,,,1,,,,,,,1,,,,,,,,1,1,,,,,1,,,,,,,,,,,,,,,,1,1,,,1,,1,1,,1,1,1,1,,,,,,,,1,1,1,,,,,,,,,,,1,,,,,,,,,1,,,,,,,,,,,
Comprehensive Psychiatric Services,16000 Ventura Boulevard,Encino,91436,Los Angeles,925-944-9711,,http://www.psych-doctor.com,34.1558861,-118.4819255,1,,,,,,1,,,1,1,1,1,1,1,1,1,1,1,1,1,,,,,,1,,,,,,,1,,1,,1,1,,,,,,,,,1,,1,1,,,1,1,1,1,1,1,1,1,1,,1,,1,1,1,1,,1,,,,,1,,,,,,,,,,,1,1,,,,,,1,1,1,1,,1,,,,1,,1,1,1,1,1,1,1,1,1,1,1,1,1,1,1,1,1,1,1,1,1,1,1,1,1,,1,,1,,,,,,,,,,,1,,,1,1,1,1,,,1,1,,1,,,,,1,1,1,,,,,,
PACS,6931 Van Nuys Boulevard,Van Nuys,91405,Los Angeles,818-989-9214,Intake,http://www.pacsla.org,34.1964998,-118.4492095,1,,,,,,1,,,1,1,,1,,1,1,1,1,,1,,,1,,,,1,,,,,,,,,,1,,,1,,,,1,1,1,1,,1,,,,,1,1,,,,,1,1,,,1,1,,1,,1,,,1,1,,1,1,,1,1,1,,,,,,1,1,1,,1,1,,,1,1,1,,,,1,,,1,,,,,,,1,,,,,,1,,,,1,,,1,1,1,1,1,,,,,,,1,,1,,,,,,,,1,,,1,,,,,,,,,1,,1,1,,,,1,1,,,,,
Star View Community Services,1501 Hughes Way,Long Beach,90807,Los Angeles,562-427-6818,,http://www.starsinc.com/los-angeles-county/,33.8289574,-118.212868,1,,,,,,1,,,1,1,1,1,,1,,1,,,,,1,,,,,1,,,,,,,,1,,1,1,,1,1,1,1,1,1,,,,1,,,,,1,,,,,,,,,1,1,,,1,,1,,,1,1,1,,1,,,1,,,,,,,1,1,1,,,,,,1,1,1,,,1,,1,,1,,,,,,,,,,,,,1,,,,,,1,1,,,1,1,,,,,,,1,,,,,,,,,,,,,,,,,,,,,,,,,,,,,,,,,,,
Harbor UCLA Medical Center,1000 West Carson Street,Torrance,90502,Los Angeles,424-306-6333,Intake,http://www.harbor-ucla.org,33.8307253,-118.2918447,1,1,,,,,,,,1,1,1,1,1,1,1,1,1,1,1,1,,,1,,,1,,,,1,,,1,1,1,1,1,1,1,,,,1,1,,,,1,1,,,,1,,,,,,,,,,,1,,,,,,1,1,1,1,1,,,,1,1,1,1,,1,1,1,1,1,,,,1,1,,1,1,1,,,,,,1,,1,,1,1,1,,,1,1,1,,1,,1,,1,1,1,1,,1,1,1,1,,,,1,1,,,,,,1,1,1,1,1,1,,,1,,1,1,,,1,,,,,1,1,,1,1,1,1,,,,,
Pacifica Hospital of the Valley,9449 San Fernando Road,Sun Valley,91352,Los Angeles,818-767-3310,Intake,http://pacificahospital.com,34.2405259,-118.3960912,1,1,,,,,,,,1,,1,,,1,1,,1,,,1,,,1,,,,,,,,,,1,1,1,1,1,,1,,,,,,,,,1,1,,,1,1,1,,,,,,,,,,1,,,,,,,1,1,1,,,1,1,,,,1,,1,,1,1,1,,1,,,1,,1,1,,,1,,,,1,,1,,1,1,1,1,,1,1,1,1,1,,,,,,1,1,,1,1,1,1,,,,,1,1,,,,,,,,,,,,,,,,,,,,,,,,,,,,,,,,,,,
Community Family Guidance Center,10929 South Street,Cerritos,90703,Los Angeles,562-924-5526 x223,Intake,http://www.cfgcenter.com/,33.858736,-118.100878,1,,,,,,1,,,1,1,1,1,1,1,,1,,,,1,,,,,,1,,,,,,,,1,,,,,1,1,,,,1,1,1,,1,,,1,,1,,1,,,,,,,1,1,,,1,,1,1,,1,1,,,1,,,1,,,,,,,,,,,,,,,1,1,1,,,,1,1,,1,,1,,1,1,1,1,1,1,1,1,1,1,1,1,1,1,1,1,1,1,1,1,1,1,,,,,,,,1,1,1,,,,,,,,,,,,,,,,,,,,,,,,,1,,,,,,
Heritage Clinic,3939 Atlantic Avenue,Long Beach,90807,Los Angeles,562-264-6001,Intake,http://www.heritageclinic.org,33.8300515,-118.1853128,1,,,,,,1,,,1,1,1,1,1,1,1,1,,,1,,1,,,,,1,,,,,,,1,1,1,,1,,,,,,,1,,,,,,,,,1,,,,,,1,1,,,,1,1,,,,,,1,1,,,1,,,1,1,,,,,,1,,1,,1,,,,,,1,1,,,1,,,1,,,,,,,,,,,,,,,,,,,,,,,,,,,,,,,,,,,,,,,,,,,,,,,,,,,,,1,,,,,,,,,,,,,
South Bay Childrens Health Center,1617 Cravens Avenue,Torrance,90501,Los Angeles,310-328-0855,,http://www.sbchc.com/,33.8325793,-118.3159896,1,,,,,,1,,,1,1,,1,,1,,1,,,1,1,,,,,,1,,,,,,,,1,,,,,1,,,,,1,,,,,,,,,1,,,,,,,,,1,,,,1,,,,,,,,,,,,1,,,,,,,,,,,,,,,1,,,,,,1,,,,,,,,,,,,,,,,,,,,,,,,,,,,,,,,,,,,,,,,,,,,,,,,,,,,,,,,,,,,,,,,,,,,,
San Fernando Valley Comm MH Ctr Inc,14600 Sherman Way,Van Nuys,91405,Los Angeles,818-374-6901,,http://www.movinglivesforward.org,34.2007359,-118.4514653,1,,,,,,,1,,1,1,1,1,,,1,,,,1,,1,,,,,1,,,,,,,1,1,1,1,,,,,,,,,,1,,1,,,1,1,1,1,,,,,,1,,1,,,,1,,,,,1,1,,,,,,,1,,,,,,1,,1,,,,,,,,1,1,,,1,,,1,,,,,1,,,,,,,1,1,1,,,1,,1,1,,1,1,1,1,,,,,1,1,,,,,,,,,,,,,,,1,,,,,,,,,,,,,,,,,,,,
Encino Hospital Med Center,16237 Ventura Boulevard,Encino,91436,Los Angeles,818-995-5002,Intake,http://www.encinomed.org,34.1574278,-118.4870017,1,1,,,,,,,,1,,1,,,,,,1,,,1,,,1,,,,,,,,,,1,1,1,,1,1,,,,,,1,,,,1,1,,,1,,,,,,,,1,,,,,,,,,,,1,1,1,,,1,,1,,,1,,1,,,1,1,,,,1,,,,1,1,,,1,,,1,,1,,1,1,,,,,,,,1,,,,1,,1,1,,,1,1,1,,,,,1,,,,,,1,1,1,,1,,,,,,,,,,,,,,,,,,,,,,,,,,
Clear Inc,201 Herondo Street,Redondo Beach,90277,Los Angeles,877-799-1985,,http://www.clearrecoverycenter.com,33.854297,-118.3918234,1,,,,,1,,,,1,1,1,1,1,1,1,1,1,,1,,1,,,,1,1,,,,,,,1,,,,1,,,,,,,,,,,1,,,,,,1,,,,,,,,,,,,,,1,,,,1,,1,,1,,1,,,,,,,,,1,1,1,,1,,1,1,1,,,1,,,,1,,,,,,,,,,,,,,,,,,,,,,,,,,1,1,,,,,,,,,,,,,,,,,,,,,,,,,,,,,,,,,,,,,,,
Center for Discovery,4136 Ann Arbor Road,Lakewood,90712,Los Angeles,866-862-3631,,http://centerfordiscovery.com/locations/lakewood/,33.8328551,-118.1436755,1,,1,,,,,,,1,1,1,1,1,,,,,,,1,,,,1,,,,,,,,,1,,,,1,1,,,,,,,,,,,,,,,,,,,,,,,,,,,,,,,1,,,1,,,,1,,1,1,,,,,,,,,,,,,,1,,,,,1,,,,1,,,,,,,,,,,,,,,,,,,,,,,,,,,1,,,,,,,,,,,,,,,,,,,,,,,,,,,,,,,,,,,,,,,
PACS,3530 Atlantic Avenue,Long Beach,90807,Los Angeles,562-424-1886,Intake,http://www.pacsla.org,33.820836,-118.184537,1,,,,,,1,,,1,1,1,1,,,,1,1,,1,,,1,,,,1,,,,,,,,1,,,,,,,,,,1,,,,1,,,,,1,1,,,,,1,1,,1,1,1,,1,,,,,,1,,,1,,,1,,,1,,,,1,,1,1,,,,1,1,1,1,1,,,1,,,1,,,,,,,,,,,,,,,,,,,,,,,,,,,,,,1,1,,1,,,,,,,,,,,1,,,,,,,,,,,1,1,,,,,,,,,,
California Mental Health Connection,14305 East Morgan Street,Baldwin Park,91706,Los Angeles,626-430-6197,Intakes,http://www.californiamhc.org,34.0879509,-117.962508,1,,,,,,1,,,1,1,1,1,,,1,1,,,1,1,,,,,,1,,,,,,,1,,1,1,1,1,,1,,,,1,1,,,1,,1,1,,1,1,1,1,,,1,,1,1,,,,1,,1,,,,1,,1,1,,1,1,,,,,,,1,,1,,,1,,,1,1,1,1,,,1,,,1,,,,,,,,,,,,,,,,,,,,,,,,,,,,,,,,,,1,,,,,,,,,,1,,1,,,,,,,,,,1,,,1,,,,,,,
Discovery Mood and Anxiety Program,350 West Wardlow Road,Long Beach,90807,Los Angeles,562-981-8400,,http://www.discoverymood.com/locations/pacific-place/,33.8186444,-118.1964405,1,,1,,,,,,,1,1,1,1,1,,,,,,,1,,,,1,,,,,,,,,1,,,,1,1,,,,,,,,,,,,,,,,1,,,,,,,,,,,,,,,,,,1,,,,,,,,,,,,,,,,,,,,,1,,,,,1,,,,1,,,,,,,,,,,,,,,,,,,,,,,,,,,1,,,,,,,,,,,,,,,,,,,,,,,,,,,,,,,,,,,,,,,
Asian Pacific Counseling and,15350 Sherman Way,Van Nuys,91406,Los Angeles,818-267-1100,,http://www.apctc.org,34.2005887,-118.4674869,1,,,,,,,1,,1,1,1,,,,,1,1,,,1,,,,,,1,,,,,,,,1,1,,,,1,,,,,,,,,1,,,1,,1,,,,,,,1,,1,1,1,,1,,1,,,,1,,,1,,,1,1,,,,,,1,,1,1,,,,1,1,1,1,1,,,1,1,,,,1,,,1,,,,,,,,1,,,,1,,1,1,1,1,1,1,1,,,,,,1,,,1,1,,,,,,,,,1,,,,,,,,,,,1,1,,,,1,1,,,,,
Center for Discovery,21515 Hawthorne Boulevard,Torrance,90503,Los Angeles,844-546-2614,,http://centerfordiscovery.com/locations/torrance/,33.8324959,-118.3538651,1,,,,,1,,,,1,1,1,1,1,1,1,1,1,,,,1,,,,1,,,,,,,,1,,,,1,,,,,,,,,,,,,,,,,,1,,,,,,,1,,,,1,,,1,,,1,,,,1,,1,,,,,,,,,,,,,,,1,1,1,,,1,,,,1,,,,,,,,,,,,,,,,,,,,,,,,,,,1,,,,,,,,,,,,,,,,,,,,,,,,,,,,,,,,,,,,,,,
Childrens Bureau,850 East Wardlow Road,Long Beach,90807,Los Angeles,562-981-9392,,http://www.childrensbureau.org,33.8187205,-118.1820248,1,,,,,,1,,,1,1,1,1,,1,,1,1,,1,,1,,,,,1,,,,,,,,1,,,,,1,,,,,,,,,1,,,,,1,,1,,,,1,,,1,1,,,1,,,,,,1,,,1,,,1,,,,,,,,,1,,,,,,1,1,,,,,1,,,,,,,,,,,,,,,,,,,,,,,,,,,,,,,,,,,,,1,1,,,,,,,,,,,,,,,,,,,,,,,,,,,,,,,
Bayfront Youth and Family Services,900 East Wardlow Road,Long Beach,90807,Los Angeles,562-595-4525,,http://www.bayfrontyouthandfamilyservices.org,33.8187148,-118.1813368,1,,,,,,1,,,1,1,1,1,,1,1,1,1,,1,1,,,,,,1,,,,,,,,1,,,,,,,,,,,,,,,1,,,,1,1,1,,,,1,1,,1,1,1,,1,,1,,,1,1,,1,,,,1,,,,,,,1,,1,,,,,,1,1,1,1,,,1,,,1,,,,,,,,,,,,,1,,,,1,,,,,,1,1,1,,,,,,,,,1,1,,,,,,,,,,,,,,,,,,,,,1,,,,1,1,,,,,
Childrens Bureau,1515 West Cameron Avenue,West Covina,91790,Los Angeles,626-337-8811,,http://www.all4kids.org,34.086893,-117.957312,1,,,,,,1,,,1,1,1,1,,,,1,,,1,1,,,,,,1,,,,,,,1,1,,1,,,1,,,,,1,,,,,,,,1,1,,,,,,,,,1,1,1,,1,,1,,,1,1,,,1,,,1,,,,,,,1,,1,,,,,,1,1,,,,,1,,,1,,,,,,,,,,,,,,,,,,,,,,,,,,,,,,,,,,,,,,,,,,,,,,,,,,,,,,,,,,,,,,,,,,
Center for Discovery,2115 Las Palomas Drive,La Habra,90631,Orange,866-862-3631,,http://centerfordiscovery.com/locations/la-habra/,33.9638412,-117.97263,1,,1,,,,,,,1,1,1,1,1,,,,,,,1,,,,1,,,,,,,,,1,,,,1,1,,,,,,,,,,,,,,,,,,,,,,,,,,,,,,,1,,,1,,,,1,,1,1,,,,,,,,,,,,,,1,,,,,1,,,,1,,,,,,,,,,,,,,,,,,,,,,,,,,,1,,,,,,,,,,,,,,,,,,,,,,,,,,,,,,,,,,,,,,,
Discovery Mood and Anxiety Program,425 East 31st Street,Long Beach,90807,Los Angeles,866-457-5205,,http://discoverymood.com/locations/long-beach/,33.8136949,-118.1876309,1,,1,,,,,,,1,1,1,1,1,1,1,1,1,,,1,,,,1,,,,,,,,,1,,,1,1,1,1,1,,1,1,1,,,,,,,,,,,1,,,,,,,1,1,,,1,,,,,,,,,,1,,1,,,1,,,,,,,,,,,,1,,,,1,1,,,,1,,,,,,,,,,,,,,,,,,,,,,,,,,,,,,,,,,,,,,,,,,,,,,,,,,,,,,,,,,,,,,,,,,
Insight Treatment Programs,6627 Valjean Avenue,Van Nuys,91406,Los Angeles,800-599-8820,Intake,http://www.insighttreatment.com,34.1909681,-118.486744,1,,,,,,1,,,1,1,1,1,1,1,1,1,1,,1,1,,,,,1,1,,,,,,,1,,,,1,1,,,,1,,,,,,1,,,,,,1,1,,,1,,,,1,1,,,1,,1,1,1,1,1,,1,1,,1,1,,1,,,,,1,1,1,,,,,,1,1,,,,1,,,,1,,,,,,,,,,,,,,,,,,,,,,,,,,,,,,,,,,1,1,,,,,,,,,,,,,,,,,,,,,,,,,,,,,,,
College Hospital Cerritos,707 Walton Avenue,Signal Hill,90755,Los Angeles,562-290-0456,,http://collegehospitals.org,33.8054763,-118.1836635,1,,,,,1,,,,1,1,1,1,,,1,1,,,1,,1,,,,1,1,,,,,,,1,1,1,1,1,1,,,,,,,,,,1,,,,,,1,1,,,,,1,,1,,1,,,,1,,,,1,,,1,1,,1,,,1,,,,1,1,1,,,,,,,1,1,1,,1,,,,1,,,,,1,,,,,,,,1,1,,,1,,1,1,,1,1,1,1,,,,,,,,,,,,,,,1,,,,,,,,,,,,,,,,,,,,,,,,,,
Del Amo Hospital,23700 Camino Del Sol,Torrance,90505,Los Angeles,800-533-5266,,http://www.delamotreatment.com/,33.8115807,-118.3443229,1,1,,,,,,,,1,,1,1,1,,1,1,1,,,1,,,1,,1,1,,,,,,,1,1,1,,1,,,,,,,,,,,1,1,1,,,,1,1,1,1,1,,1,1,1,1,1,,1,,1,,,,1,,,,,,,,,,,,,,,1,,,,,,1,1,1,1,,1,,,,1,,1,,1,1,1,1,,1,1,,1,1,1,,,1,,1,1,,1,1,1,1,,,,,1,1,,,,,,,,,,,,,,,,,,,,,,,,,,,,,,,,,,,
San Fernando Valley Counseling Center,7247 Hayvenhurst Avenue,Van Nuys,91406,Los Angeles,818-341-1111,Intake,http://sfvcc.org,34.2025495,-118.4936256,1,,,,,,1,,,1,1,1,1,,1,1,1,,,1,1,,,,,,1,,,,,,,1,,,,,,,,,,,,,,,,,1,1,,1,,,,,,,,,,,,,,,,,,,,,,1,,,1,,,,,,,,,1,,,,,,1,1,1,1,,,1,,,,,,,,,,,,,,,,,,,,,,,,,,,,,,,,,,,,,,,,,,,,,,,,,1,,,,,,,,,,,,,,,,,,,,
San Fernando Valley Comm MH Ctr Inc,16650 Sherman Way,Van Nuys,91406,Los Angeles,818-901-4836,,http://www.movinglivesforward.org/,34.2007919,-118.4958392,1,,,,,,,1,,1,1,1,1,,,1,1,,,1,,1,,,,,1,,,,,,,,1,1,,,,,,,,,,,,,1,,,1,,1,,,,,,,,,,,,,,,,,1,1,1,,,1,,1,,1,,,,,,1,,,,1,,,1,,1,1,1,,,1,,,1,,1,,,1,,1,,,,,,1,,,,1,,1,1,1,1,1,1,1,,,,,1,1,,,,,,,,,,,,,1,,,,,,1,,,,,,,,,,,,,,,,
Penny Lane Centers,15305 Rayen Street,North Hills,91343,Los Angeles,818-892-3423,,http://www.pennylane.org,34.231966,-118.465914,1,,,,,,,,1,1,1,1,1,,,,1,,,,1,,,,,,1,,,,,,,,,1,1,,,1,1,1,,,1,,,,,,,,,1,,,,,,,,,,1,,,1,,,,,,1,,,1,,,,1,,,,,,1,,,,1,1,,,1,1,,,,,1,,,1,,,,,,,,,,,,,,,,,,,,,,,,,,,,,,,,,,1,,,,,,,,,,,,,,,,,,,1,,,,,,,,,,,,,
Maryvale Family Resource Center,2502 Huntington Drive,Duarte,91010,Los Angeles,626-263-9133 x240,Intake,http://www.maryvale.org,34.1394003,-117.9513526,1,,,,,,1,,,1,1,,1,,1,1,1,,,1,1,,,,,,1,,,,,,,,1,,1,,,,,,,,,,,,1,,,,1,1,1,1,,,,,,,1,1,1,,1,,1,,,1,1,,,,,,1,,,,,,,1,,,,,,,,1,1,1,,,,1,,,1,,,,,,,,,,,,,,,,,,,,,,,,,,,,,,,,,,,,,,,,,,,,,,,,,,,,,,,,,,,,,,,,,,
Long Beach Child and Adol Prog,2600 Redondo Avenue,Long Beach,90806,Los Angeles,562-256-2906,,http://,33.8048903,-118.1507532,1,,,,,,1,,,1,1,1,1,1,,,1,,,1,1,,,,,,1,,,1,,,,1,1,1,1,,,1,1,,,1,,,,,1,,1,1,,1,,,,,,,,,,,,,,,,,,,1,,,,,,1,1,,,,,,,1,,1,,,,,1,1,1,,,,,,,1,,1,,1,1,1,1,,1,,1,1,1,1,,,,,1,1,,,1,1,1,,,,,1,,,,,,,,,,,,,,,,1,,,,,,,,,,,,,,,,,,,,
Tarzana Treatment Centers Inc,2101 Magnolia Avenue,Long Beach,90806,Los Angeles,800-996-1051,Intake,http://www.tarzanatc.org,33.7954752,-118.198337,1,,,1,,,,,,1,1,1,1,,,1,,1,,,,1,,,1,,,,,,,,,1,1,1,,1,,,1,1,1,,1,1,1,,,,1,1,1,1,1,1,,,,1,,1,,,,,1,,,,,,,,,,,,1,,,,,,,,,,,1,,,,,1,1,1,,,1,,,,,,,,,,,,,,,,,,,,,,,,,,,,,,,,,,,,,,,,,,,,,,,,,,,,,,,,,,,,,,,,,,,,,
Hathaway/Sycamores Child/Family Servs,12510 Van Nuys Boulevard,Pacoima,91331,Los Angeles,818-896-2255,Intakes,http://www.hathaway-sycamores.org,34.2773782,-118.4050372,1,,,,,,,1,,1,1,1,1,1,1,1,1,,,1,,1,,,,,1,,,,,,,,1,1,,,,1,1,1,1,1,1,1,1,,1,,,,1,1,1,,,,,1,,,1,1,,,1,,,,,1,1,,1,1,,,1,,,,,,,1,1,1,,,,,,1,1,,,,,1,,,1,,,,,,,,,,,,,,,,,,,,,,,,,,,,,,,,,,,,,,,,,,,,,,,,,,,,,,,,,,,,,,,,,,
Hathaway/Sycamores Child/Family Servs,12450 Van Nuys Boulevard,Pacoima,91331,Los Angeles,818-896-8366,Intakes,http://www.hathaway-sycamores.org/,34.2786682,-118.4040331,1,,,,,,1,,,1,1,1,1,1,1,1,1,,,1,,1,,,,,1,,,,,,,,1,1,,,,1,1,1,1,1,1,1,1,,1,1,,,1,1,1,,,,,1,,,1,1,,,1,,,,,1,1,,1,1,,,1,,,,,,,1,1,1,,,,,,1,1,,,,,1,,,1,,,,,,,,,,,,,,,,,,,,,,,,,,,,,,,,,,,,,,,,,,,,,,,,,,,,,,,,,,,,,,,,,,
Guidance Center,1301 Pine Avenue,Long Beach,90813,Los Angeles,562-595-1159,Intake,http://www.tgclb.org/,33.7829538,-118.192715,1,,,,,,,1,,1,1,1,1,1,,1,1,,,1,,1,,,,,1,,,,,,,1,,,,,,1,1,,1,1,1,,,,,,,,,1,,1,,,,,,,1,1,,,1,,1,,,1,1,1,,1,,,1,,,,,,,1,,,1,,,,1,1,1,1,,,,1,,,,,1,,,,,,,,,,,1,,,,1,,,1,,,1,1,1,,,,,,,,1,,,,,,,,,,,,,,,,,,,,,,,,,,,,,,,,,
VA Greater Los Angeles Healthcare Sys,16111 Plummer Street,North Hills,91343,Los Angeles,818-891-7711,Intake,http://,34.2444405,-118.4816375,1,,,,,,,,,1,1,1,1,,1,1,1,1,,1,1,,,,,,1,1,,,,,,,,,,,,,,,,,,,,1,,1,,,,,1,1,1,,,1,1,1,1,,1,1,1,1,,,,1,1,1,1,1,1,1,1,1,1,1,,1,1,1,1,1,1,1,,1,1,,1,1,1,,,,,1,,,,,,,,,,1,1,1,,1,1,,,1,1,1,1,1,1,1,1,1,,1,1,,1,,,,,,,,,,,,,,,,,,,,,,,,,,,,,,,,,,,,
Child and Family Guidance Center,8550 Balboa Boulevard,Northridge,91325,Los Angeles,818-830-0200 x5641,Intake,http://www.childguidance.org,34.226198,-118.501808,1,,,,,,1,,,1,1,1,1,,,,1,,,1,,1,,,,,1,,,,,,,,1,1,1,,,1,1,,,,,,,,1,1,,,1,1,1,1,,,,,,,1,1,1,,1,,1,,,,1,,,,,1,1,1,,,,,,1,,1,1,1,,,1,1,1,1,,,,1,,,1,,,,,,,,,,,,,,,,,,,,,,,,,,,,,,,,,,,,,,,,,,,,,,,,,,1,,,1,,,,,,,,,,,,,
Tarzana Treatment Centers Inc,18646 Oxnard Street,Tarzana,91356,Los Angeles,818-996-1051,,http://www.tarzanatc.org,34.1795005,-118.5398534,1,1,,,,,,,,,,1,1,,1,1,,1,1,1,,1,,1,1,1,1,,,,,,,1,1,1,1,1,,1,1,1,1,1,,1,1,,1,,1,,1,1,1,1,,,,1,,1,,,,,1,,,,1,,1,1,,,,1,1,1,,,,,,1,,,1,,,1,1,,1,1,1,,,1,,,,,,,,,,,,,,,,,,,,,,,,,,,,,,,,,,,,,,,,,,,,,,,,,,,,,,,,,,,,,,,,,,,,,
Tarzana Treatment Centers Inc,18700 Oxnard Street,Tarzana,91356,Los Angeles,818-654-3950,Intake,http://www.tarzanatc.org,34.180051,-118.541027,1,,,,,,,,1,1,1,1,1,,,,,1,,,,1,,,,1,1,,,,,,,1,1,1,1,1,,1,1,,1,,,1,1,,,,1,,1,1,1,1,,,,1,,1,,,,,1,,,,,,,,,,,,1,,,,,,,,,,,1,,,,1,1,1,1,,,1,,,,,,,,,,,,,,,,,,,,,,,,,,,,,,,,,,,,,,,,,,,,,,,,,,,,,,,,,,,,,,,,,,,,,
Evolve Treatment Centers,5358 Vanalden Avenue,Tarzana,91356,Los Angeles,800-859-9052,,http://evolvetreatment.com/?utm_source=web&utm_medium=referral&utm_campaign=SAMHSA,34.1685815,-118.5497346,1,,1,,,,,,,1,1,1,1,1,1,1,1,1,,1,1,,,,1,,,,,,,,,1,,,,1,,,,,,,,,,,,,,,,,1,,,,,,,,,1,,,,,,,,1,1,,1,,,1,1,,,,,1,,,1,,,,,,,1,,,,,1,,,,1,,,,,,,,,,,,,1,,1,1,,,1,1,,,1,1,1,,,,,,,,,,,,,,,,,,,,,,,,,,,,,,,,,,,,,,,,,
Evolve Treatment Centers,5435 Aura Avenue,Tarzana,91356,Los Angeles,800-859-9052,,http://evolvetreatment.com/?utm_source=web&utm_medium=referral&utm_campaign=SAMHSA,34.1700583,-118.5549478,1,,1,,,,,,,1,1,1,1,1,1,1,1,1,,1,1,,,,1,,,,,,,,,1,,,,1,,,,,,,,,,,,,,,,,1,,,,,,,,,1,,,,,,,,1,1,,1,,,1,1,,,,,1,,,1,,,,,,,1,,,,,1,,,,1,,,,,,,,,,,,,1,,1,1,,,1,1,,,1,1,1,,,,,,,,,,,,,,,,,,,,,,,,,,,,,,,,,,,,,,,,,
Tarzana Treatment Centers Inc,7101 Baird Avenue,Reseda,91335,Los Angeles,818-342-5897,Intake,http://www.tarzanatc.org,34.19943,-118.537494,1,,,,,,,,1,,1,1,1,,,,,1,,,,1,,,,1,1,,,,,,,1,1,1,,1,,1,1,1,,,1,1,1,,,,1,1,1,1,1,1,,,,1,,1,,,,,1,,,,,,,,,,,,1,,,1,,,,,,,,1,,,,,1,1,1,,,1,,,,,,,,,,,,,,,,,,,,,,,,,,,,,,,,,,,,,,,,,,,,,,,,,,,,,,,,,,,,,,,,,,,,,
ALMA Family Services,18780 Amar Road,Walnut,91789,Los Angeles,323-881-3799,,http://www.almafamilyservices.org,34.0277097,-117.8923561,1,,,,,,1,,,1,1,1,1,,1,1,1,,,,1,,,,,,1,,,,,,,,1,1,,,,,,1,,,1,,,,1,,,,,1,1,1,,,1,1,1,1,1,1,1,,1,,1,,,,1,,1,1,,,1,,,,,,,,,1,,,,,,1,1,1,1,,,1,,,1,,1,,1,1,1,1,,,,,,,,,,,,,,,,,,,,,,,1,,,,1,1,,,,,,,,,,,,,,,,,,,,,,,,,,,,,,,
Long Beach VAMC,5901 East 7th Street,Long Beach,90822,Los Angeles,562-826-5601,Intake,http://www.longbeach.va.gov,33.777569,-118.1189428,1,,,,,,,,,1,1,1,1,1,1,1,1,1,1,1,1,,,1,,1,1,1,,,,,,,,,,1,,,,,,,,,,1,1,1,,,1,1,1,1,1,,,1,1,,,,1,1,1,1,,,1,1,1,1,1,1,1,1,1,1,1,1,1,1,1,1,1,1,1,1,,1,1,,1,1,1,,,,,1,1,,,,,,,,,,,,,,,,,,,,,,,,,,,1,1,,,,,,,,,,,,,,,,,,,,,,,,,,,,,,,,,,,,,,
Destinations for Teens,20851 Cheney Drive,Topanga,90290,Los Angeles,818-737-2221,Intake,http://www.destinationsforteens.com,34.115061,-118.5888025,1,,1,,,,,,,1,1,1,1,1,1,1,1,1,,1,1,,,,1,,,,,,,,,1,,,,1,1,,,,,,,,,,1,,,,,,1,1,,,1,1,,1,1,1,,,1,,,,1,,,,1,1,,1,1,,,,,,,,1,1,,,,1,,1,,,,,1,,,,1,,,,,,,,,,,,,1,1,1,1,1,1,1,1,1,1,1,1,1,,,,,1,,,,1,1,,,,,,,,,,,,,,,,,,,,,,,,,,,,,,,
Joyce Eisenberg Keefer Medical Ctr,7150 Tampa Avenue,Reseda,91335,Los Angeles,818-774-3000,Intakes,http://www.jha.org,34.2005491,-118.5530298,1,1,,,,,,,,1,,1,1,,,,,1,,,,1,,1,,,,,,,,,,1,1,1,,1,,,,,,,,,,,1,,,,1,1,,,,,,,1,,,,,1,,,,,,,1,1,,,,,,,,1,,,,,1,1,,,,,,,,,1,,,1,,,,,1,,1,1,,,,1,1,1,1,1,,,,1,,1,1,,1,1,1,1,,,,,,,,,,,,,,,,,,,,,1,,,,,1,,,,,,,,1,1,,,,,,
Five Acres,2934 East Garvey Avenue South,West Covina,91791,Los Angeles,626-798-6793 x4701,Intake,http://www.5acres.org/community-based-services/,34.071243,-117.8836584,1,,,,,,1,,,1,1,,1,,1,,1,1,,1,1,,,,,,1,,,,,,,,1,,,1,,1,1,,,,,,,,,,,,1,1,,1,,,,,,,1,1,,,,,1,,,,1,,,,,1,1,,,,,,,1,,1,,,,,,1,1,,,,,1,,,,,,,,,,,,,,,,,,,,,,,,,,,,,,,,,,,,,,,,,,,,,,,1,,,,,,,,,,,,,,,,,,,,,,
Child and Family Guidance Center,9650 Zelzah Avenue,Northridge,91325,Los Angeles,818-993-9311,Intake,http://www.childguidance.org/,34.2463039,-118.52249,1,,,,,,,1,,1,1,1,1,1,1,1,1,1,,1,1,,,,,,1,,,,,,,1,1,,1,,,1,1,1,,,1,,,,,1,,,,1,1,1,,,1,1,,,1,1,,,1,,1,,,,1,,1,1,,1,1,,,,,,,1,,1,,,,,,1,1,,,,,1,,,1,,,,,,,,,,,,,1,1,,,,,1,,,,1,1,1,,,,,,,,,,,,,,,,,,,,,,,,,,,,,,,,,,,,,,,,,
Destinations for Teens,22029 Cannon Drive,Topanga,90290,Los Angeles,877-466-0620,,http://www.destinationsforteens.com/,34.12499,-118.6068099,1,,1,,,,,,,1,1,1,1,,,1,,,,,1,,,,1,,,,,,,,,1,,,,1,1,,,,,,,,,,1,,1,,,1,1,1,,,1,1,,1,1,,,,1,,,,,,1,,,,,1,1,1,,,,,,,,1,,,,,,1,,,,,1,,,,,,,,,,,,,,,,,,,,,,,,,,,,,,,,,,1,1,,,,,,,,,,,,,,,,,,,,,,,,,,,,,,,,,,,
East San Gabriel Valley ,1359 North Grand Avenue,Covina,91724,Los Angeles,626-430-2999,,http://,34.1041434,-117.8742983,1,,,,,,,1,,1,,1,1,,,1,,1,,1,,,1,,,,1,,,,1,,,1,1,1,1,,,,,,,,1,,,,1,1,,,1,1,1,1,,,,1,,,,,1,,,,,,1,1,1,,,,,,1,1,,,,,,1,1,1,,,,,,,,1,,,,,,,1,,1,,1,1,1,1,,,,,1,1,,,,1,,1,1,,1,1,1,1,,,,,1,1,,,,,,,,,,,,,1,,,,,,,,,,,,,,1,,,,,,,,
East San Gabriel Valley,1359 North Grand Avenue,Covina,91724,Los Angeles,626-430-2900,,http://,34.1041723,-117.8742121,1,,,,,,1,,,1,,1,1,,,,1,,,1,,1,,,,,1,,,,1,,,1,1,1,1,,,,1,,,,1,,,,1,,1,1,1,1,1,1,,,,1,1,,1,1,1,,1,,1,,,1,1,,1,,,,1,1,,1,,,,1,1,1,1,,,,,1,1,1,1,,,,,,1,,,,1,1,,,,,,,,1,1,1,,1,1,1,1,1,1,1,1,1,,,,,1,1,,,,1,,,,,,,,,1,,,,,,,,,,,,,1,,,1,,,,,,
Hathaway/Sycamores Child/Family Servs,1411 North Grand Avenue,Covina,91724,Los Angeles,626-395-7100,Intake,http://www.hathaway-sycamores.org,34.105218,-117.874198,1,,,,,,,1,,1,1,,1,,1,,1,,,1,,1,,,,,1,,,,,,,,1,1,1,,,1,1,1,,1,1,,,,,,,,1,1,1,1,,,1,,,1,1,1,1,,1,,1,1,,1,1,,1,1,,,1,,,,,,,1,,1,,,,,,1,1,,,,,1,,,1,,,,,,,,,,,,,,,,,,,,,,,,,,,,,,,,,,1,,,,,,,,,,,,,,,,,,,,,,,,,,,,,,,,
Pacific Clinics,1126 North Grand Avenue,Covina,91724,Los Angeles,626-967-1667,Intake,http://www.pacificclinics.org,34.1000965,-117.872305,1,,,,,,,1,,1,,1,1,,1,,1,,,1,1,,,,,,1,,,,,,,,1,1,1,,,1,1,1,,,1,,1,,,,,,,1,,1,,,,,,,1,1,1,,1,,1,,,,1,,,,,,1,,,,,,,1,,1,,,,,,1,1,,,,,1,,,,,,,,,,,,,,,,,,,,,,,,,,,,,,,,,,,,,,,,,,,,,,,,,,,,,,,,,,,,,,,,,,,,,
Optimum Performance Institute,21051 Warner Center Lane,Woodland Hills,91367,Los Angeles,818-610-3956,,http://www.optimumperformanceinstitute.com,34.1750152,-118.5920118,1,,,,,,,,1,1,1,1,1,1,,,1,1,,,,1,,,1,1,1,,,,,,,1,,,,,,,,,,,,,,,,,,,,,1,1,,,,,,,1,,,,1,,1,,,,1,,,,,1,1,,,,,,,,,,,,,,,,1,,,,1,,,,,,,,,,,,,,,,,1,,1,,,,1,1,,,1,1,1,,,,,,,,,,,,,,,,,,,,,,,,,,,,,,,,,,,,,,,,,
Destinations for Teens,21051 Warner Center Lane,Woodland Hills,91367,Los Angeles,818-737-2221,Intake,http://www.destinationsforteens.com,34.1750152,-118.5920118,1,,,,,,,,1,1,1,1,1,1,1,1,1,1,,1,1,,,,,1,1,,,,,,,1,,,,1,1,,,,,,,,,,,,,,,,1,1,,,1,1,,1,1,1,,,1,,,,1,,,,1,1,,1,1,,,,,,,,1,1,,,,1,,1,,,,,1,,,,1,,,,,,,,,,,,,1,1,1,1,1,1,1,1,1,1,1,1,1,,,,,,,,,1,1,,,,,,,,,,,,,,,,,,,,,,,,,,,,,,,
Guidance Center ,222 West 6th Street,San Pedro,90731,Los Angeles,310-833-3135,,http://www.tgclb.org/,33.7390181,-118.281904,1,,,,,,,1,,1,1,1,1,1,,1,1,,,1,,1,,,,,1,,,,,,,1,,,,,,1,1,,1,,1,,,,,,,,,1,,1,,,,,,,1,1,,,1,,1,,,1,1,1,,1,,,1,,,,,,,,,,,,,,,1,1,1,,,,1,,,,,1,,,,,,,,,,,1,,,,1,,,1,,,1,1,1,,,,,,,,1,,,,,,,,,,,,,,,,,,,,,,,,,,,,,,,,,
Aurora Charter Oak Hospital,1161 East Covina Boulevard,Covina,91724,Los Angeles,626-966-1632,Intake,http://www.charteroakhospital.com,34.1003274,-117.8668073,1,1,,,,,,,,1,1,1,1,,1,1,1,1,,,,1,,1,,1,1,,,,,,,1,1,1,,1,1,,,,,,,,,,1,1,,,1,1,1,,,,,,,,1,1,1,,,,,,,,1,,,1,,1,1,,1,,,1,1,,1,1,,,,1,,1,1,1,1,,1,,,,1,,1,,1,1,1,1,,1,1,1,1,1,,,,1,,1,1,1,1,1,1,1,,,,,1,,,,,1,,,,,,,,,,,,,,,,,,,,,,,,,,,,,,,
Center for Discovery,30175 Avenida Tranquila,Rancho Palos Verdes,90275,Los Angeles,866-862-3631,,http://centerfordiscovery.com/locations/rancho-palos-verdes/,33.7595204,-118.3992862,1,,,1,,,,,,1,1,1,1,1,,,,,,,,1,,,1,,,,,,,,,1,,,1,1,1,1,1,1,1,1,1,1,1,,,,,,,,,,,,,,,,,,,,,,,1,,,1,,,,1,,1,1,,,,,,,,,,,,,,,1,1,,,1,,,,1,,,,,,,,,,,,,,,,,,,,,,,,,,,1,,,,,,,,,,,,,,,,,,,,,,,,,,,,,,,,,,,,,,,
LAC Olive View/UCLA Medical Ctr,14445 Olive View Drive,Sylmar,91342,Los Angeles,747-210-3001,Intake,http://dhs.lacounty.gov/wps/portal/dhs/oliveview,34.3259095,-118.4459572,1,1,,,,,,,,1,,1,1,,1,1,1,1,,,1,,,1,,,1,,,,1,,,1,1,1,,1,1,1,,,,,1,,,,,1,,1,1,1,,,,,,,,,,,,,,,,,,,1,1,,,1,1,1,1,,1,,1,1,1,1,1,,,,1,,1,1,1,1,,,,,,1,,1,,1,1,1,1,,1,,,,1,1,,,1,1,1,1,,1,1,1,1,,,,,1,,,,,,,,,,,,,,,,1,,,,,,,1,,1,1,,,,1,,,,,,
Los Angeles County DMH,14659 Olive Drive,Sylmar,91342,Los Angeles,818-485-0888,,http://www.dmh.lacounty.gov/,34.3241308,-118.4506607,1,,,,,,1,,,1,1,1,1,,1,1,1,,,1,1,,,,,,1,,,,1,,,1,1,1,1,1,,1,,,,,1,,,,1,1,1,1,1,1,,,,,,,,,,,1,,,,,,,,1,,,,,,1,1,,,,,,1,1,1,,,,,,,1,1,1,,,,,,1,,1,,1,1,,,,,1,,,1,1,1,,1,,1,1,,1,1,1,1,,,,,1,,,,,,1,1,1,1,,,,,,,1,,,,,,,,,,,,,,,,,,,,
Center for Discovery,21650 Oxnard Street,Woodland Hills,91367,Los Angeles,844-546-2614,,http://centerfordiscovery.com/locations/woodland-hills/,34.1787318,-118.6010616,1,,,,,1,,,,1,1,1,1,1,1,1,1,1,,,,1,,,,,1,,,,,,,1,,,,1,,,,,,,,,,,,,,,,,1,1,,,,,,,1,,,,1,,,1,,,1,,,,1,,1,,,,,,,,,,,,,,,1,1,1,,,1,,,,1,,,,,,,,,,,,,,,,,,,,,,,,,,,,,,,,,,,,,,,,,,,,,,,,,,,,,,,,,,,,,,,,,,
Glendora Community Hospital,150 West Route 66,Glendora,91740,Los Angeles,626-852-5000,Intakes,http://www.primehealthcare.com/,34.1275602,-117.8651171,1,1,,,,,,,,1,,1,1,,1,,,1,,,1,,,1,,,,,,,,,,1,1,1,,,,,,,,,,,,,,,,,1,1,1,1,1,1,1,1,1,1,1,,1,1,1,,,,,,1,1,,,1,1,1,,1,1,,1,1,,1,1,,,,1,,,1,1,1,,,1,,,1,,1,,1,1,1,1,,1,,,1,1,1,,,1,,1,1,,1,1,1,1,,,,,1,,,,1,1,1,1,1,1,1,,,,,,,,,,,,,,,,,,,,,,,,,,
Evolve Treatment Centers,4810 Azucena Road,Woodland Hills,91364,Los Angeles,800-859-9052,,http://evolvetreatment.com/?utm_source=web&utm_medium=referral&utm_campaign=SAMHSA,34.1551762,-118.613961,1,,1,,,,,,,1,1,1,1,1,1,1,1,1,,1,1,,,,1,,,,,,,,,1,,,,1,,,,,,,,,,,,,,,,,1,,,,,,,,,1,,,,,,,,1,1,,1,,,1,1,,,,,1,,,1,,,,,,,1,,,,,1,,,,1,,,,,,,,,,,,,1,,1,1,,,1,1,,,1,1,1,,,,,,,,,,,,,,,,,,,,,,,,,,,,,,,,,,,,,,,,,
Warner Park Recovery Center,5855 Topanga Canyon Boulevard,Woodland Hills,91367,Los Angeles,818-916-6869,Intake,http://www.warnerparkrecovery.com,34.1771165,-118.6056249,1,,,,,1,,,,1,1,1,1,1,1,1,1,1,,1,,1,,,,1,1,,,,,,,1,,,,1,,,,,,,,,,,,,,,,,1,1,1,1,1,1,1,1,1,1,1,,1,,1,1,1,,1,,1,1,1,,1,,,1,1,,1,1,1,1,,,,1,1,1,1,1,1,,1,,,,1,,,,,,,,,,,,,1,,,,,,1,1,1,1,1,1,1,,,,,,,,,,,,,,,1,,,,,,,,,,,,,,,,,,,1,,,,,,,
West Valley,20151 Nordhoff Street,Chatsworth,91311,Los Angeles,818-407-3200,,http://dmh.lacounty.gov/,34.2325078,-118.5729073,1,,,,,,1,,,1,1,1,1,1,,1,1,,,1,,,1,,,,1,,,,1,,,1,1,1,,,,,,,,,,,,,1,1,,,1,1,1,,,,,,,,1,,1,,1,,,,,1,1,1,1,,1,,1,1,,,,,1,1,1,1,,,,,1,,1,1,1,,,,,,,,1,,,1,1,1,,1,1,1,1,1,,,,1,1,1,1,,1,1,1,1,,,,,1,,,,1,,,,,,,,,,1,,1,,1,,,,,1,,,,,,1,1,,,,,,
Phillips Graduate Institute,19900 Plummer Street,Chatsworth,91311,Los Angeles,818-386-5600,Intake,http://,34.2419401,-118.5676698,1,,,,,,1,,,1,1,1,1,,1,1,1,,,1,1,,,,,,1,,,,,,,1,,,,,,,,,,,1,,,,,,1,1,,1,,,,,,1,,,,,,,,,,,,,,,,1,,,1,,,,,,,,1,1,,,,,,1,1,1,1,,,1,,,1,,,,,,,,,,,,,,,,,,,,,,,,,,,,,,,,1,1,1,,,,,,,,,,,,1,,,,,,,,,,,,,,,,,,,,
Destinations For Teens,22842 Hatteras Street,Woodland Hills,91367,Los Angeles,818-737-2221,Intake,http://www.destinationsforteens.com,34.1754172,-118.6249065,1,,1,,,,,,,1,1,1,1,1,1,1,1,1,,1,1,,,,1,,,,,,,,,1,,,,1,1,,,,,,,,,,1,,,,,,1,1,,,1,1,,1,1,1,,,1,,,,1,,,,1,1,,1,1,,,,,,,,1,1,,,,1,,1,,,,,1,,,,1,,,,,,,,,,,,,1,1,1,1,1,1,1,,1,1,1,1,1,,,,,1,,,,1,1,,,,,,,,,,,,,,,,,,,,,,,,,,,,,,,
Destinations For Teens,5100 Calenda Drive,Woodland Hills,91367,Los Angeles,818-737-2221,Intake,http://www.destinationsforteens.com,34.1626143,-118.6374863,1,,1,,,,,,,1,1,1,1,1,1,1,1,1,,1,1,,,,1,,,,,,,,,1,,,,1,1,,,,,,,,,,1,,,,,,1,1,,,1,1,,1,1,1,,,1,,,,1,,,,1,1,,1,1,,,,,,,,1,1,,,,1,,1,,,,,1,,,,1,,,,,,,,,,,,,1,1,1,1,1,1,1,1,1,1,1,1,1,,,,,1,,,,1,1,,,,,,,,,,,,,,,,,,,,,,,,,,,,,,,
McKinley,762 Cypress Street,San Dimas,91773,Los Angeles,909-599-1227 x1738,Intake,http://www.mckinleycc.org,34.094827,-117.8219609,1,,1,,,,,,,1,1,1,1,,1,,1,1,,1,1,,,,1,,1,,,,,,,,1,,1,1,,1,1,1,1,1,1,,1,,1,,,,,1,,,,,,,,,1,1,,,1,,,,,1,1,,1,,,,1,,,,,,,1,,,,,1,,,1,,,,1,,1,,,1,,,,,,,,,,,,,,,,,,,,,,,,,,,,,,,,,,,,,,,,,,,,,,,,,,,,,,,,,,,,,,,,,,
Evolve Treatment Centers,423 Woodbluff Road,Calabasas,91302,Los Angeles,800-859-9052,,http://evolvetreatment.com/?utm_source=web&utm_medium=referral&utm_campaign=SAMHSA,34.0779344,-118.6911673,1,,1,,,,,,,1,1,1,1,1,1,1,1,1,,1,1,,,,1,,,,,,,,,1,,,,1,,,,,,,,,,,,,,,,,1,,,,,,,,,1,,,,,,,,1,1,,,,,1,1,,,,,1,,,1,1,,,,,,1,,,,,1,,,,1,,,,,,,,,,,,,1,,1,1,,,1,1,,,1,1,1,,,,,,,,,,,,,,,,,,,,,,,,,,,,,,,,,,,,,,,,,
David and Margaret,1350 3rd Street,La Verne,91750,Los Angeles,909-596-5921 x3140,Intakes,http://www.DavidandMargaret.org,34.1024159,-117.7854785,1,,,,,,,,1,1,1,1,1,,1,1,1,1,,1,1,,,,1,,1,,,,,,,1,1,,,,,1,1,,,1,1,,,,1,,1,1,1,1,1,1,,,,,,,1,1,1,,1,,1,,,1,1,,1,1,1,1,1,1,,1,,,,1,1,1,1,1,1,1,1,1,1,1,1,,,1,,,1,,1,,1,,1,,,,,,,1,,,,,,,1,1,,1,1,,,,,,1,1,1,1,,1,,,,,,,,,,,,,,,,,,,,,,,,,,,,,,,
Haynes Family of Programs,1025 Sentinel Drive,La Verne,91750,Los Angeles,909-833-2986,Intake,http://,34.1191627,-117.7850247,1,,,,,,,1,,1,1,,1,,1,,1,1,,1,1,,,,,,1,,,,,,,,1,,1,,,,,,,,,,,,1,,,,1,1,,,,,,,,,1,1,1,,1,,1,,,1,1,,1,1,,1,1,1,,,,,,1,,,,,,,,1,1,,,,,1,,,1,,,,,,,,,,,,,1,,,,1,,,1,,,1,1,1,,,,,,,,,,,,,,,,,,,,,,,,,,,,,,,,,,,,,,,,,
Tri City Mental Health Center,2008 North Garey Avenue,Pomona,91767,Los Angeles,909-623-6131,Intake,http://tricitymhs.org,34.0828993,-117.7525015,1,,,,,,,1,,1,1,1,1,1,1,1,1,,,1,1,,,,,,1,,,,1,,,1,1,1,1,,,1,,,,1,1,,,,1,1,1,1,1,1,1,1,1,,,,1,,1,,1,,1,,1,,,1,1,,1,1,,,1,1,,,,,,1,1,1,,1,,1,,,1,1,1,,,,,,1,,1,,1,1,1,1,1,1,1,1,1,1,1,1,1,1,1,1,1,1,1,1,1,1,,,,,1,1,,,,,,,,,,,,,1,,1,,,,,,,,,,1,,,,1,1,,,,,
Ettie Lee Youth and Family Services,160 East Holt Avenue,Pomona,91767,Los Angeles,909-620-2521,,http://www.ettielee.org/,34.062378,-117.748816,1,,,,,,,1,,1,1,1,1,1,,,1,,,1,1,,,,,,1,,,,,,,1,1,,,,,,1,,,,1,,,,,,,,,1,1,1,,,,,,,1,1,,,1,,1,,,,1,,,1,,1,1,1,,,,,,1,1,1,,,1,,,1,1,,,,,1,,,1,,,,,1,,,,,,,,1,,,,1,,1,1,1,,1,1,,,,,,,,1,,,,,,,,,,,,1,,1,,,1,,,,1,,,,,,,,,,,,,
Haynes Family of Programs,233 Baseline Road,La Verne,91750,Los Angeles,909-593-2581,Intakes,http://www.leroyhaynes.org,34.1211452,-117.7532116,1,,1,,,,,,,1,1,1,1,,1,1,1,1,,1,1,,,,1,,1,,,,,,,,1,,,,,,,,,,,,,,1,,,,1,1,1,,,,,1,,,1,1,1,,1,,1,,,1,1,,1,1,,1,1,1,,,,,,1,,1,,,,,,1,1,,,,,1,,,1,,,,,,,,,,,,,1,,,,1,,,1,,,1,1,1,,,,,,,,,,,,,,,,,,,,,,,,,,,,,,,,,,,,,,,,,
Tri City Mental Health Center,1900 Royalty Drive,Pomona,91767,Los Angeles,909-784-3200,Intake,http://tricitymhs.org,34.07716,-117.745971,1,,,,,,,1,,1,1,1,1,,1,1,1,,,1,1,,,,,,1,,,,1,,,1,1,1,1,,,1,,,,1,1,,,,1,1,1,1,1,1,1,1,,,,,,,1,1,,,1,,1,,,1,1,,1,1,,,1,1,1,,,,,1,1,1,,1,,1,,1,1,,,,,,,,1,,1,,1,1,1,1,1,1,1,1,1,1,1,1,1,1,1,1,1,1,1,1,1,1,,,,,1,1,,,,1,,,,,,1,,,1,,,,,,,,,,,,1,,,,,1,,,,,
Olive Vista Behavioral Health Center,2335 South Towne Avenue,Pomona,91766,Los Angeles,909-628-6024,Intakes,http://,34.02771,-117.740349,1,,,1,,,,,,1,1,1,1,1,1,,,,,,,1,,,1,,,,,,,,,1,,,,,,1,,,,,,,,,,,,,,1,1,,,,,1,,,,,1,,,,,,,,,1,1,,1,1,1,,1,1,,,,1,1,,,,,1,1,,1,1,1,,1,,,,1,,,,1,1,,,,,,,,1,,,,1,,1,1,,1,1,1,1,,,,,1,,,,,,,,,,,,,,,,,,,,,,,,,,,,,,,,,,,,
Pacific Clinics,790 East Bonita Avenue,Pomona,91767,Los Angeles,909-625-7207,Intake,http://www.pacificclinics.org,34.0954486,-117.7374289,1,,,,,,1,,,1,1,1,1,,1,1,1,,,1,,1,,,,,1,,,,,,,,,,1,,,1,1,1,,,1,,1,,,,,,,1,1,1,,,,,,,1,1,1,,1,,1,1,,,1,,,,,,1,1,,,,,,1,,1,1,,,,1,1,1,,,,,1,,,,,,,,,,,,,,,,,,,,,,,,,,,,,,,,,,,,,1,1,,,,,,,,,,,,,,,,,,,,,,,,,,,,,,,
Child and Family Center,21545 Centre Pointe Parkway,Santa Clarita,91350,Los Angeles,661-259-9439,,http://www.childfamilycenter.org,34.4129967,-118.5137171,1,,,,,,1,,,1,1,1,1,,1,1,1,1,,1,,1,,,,,1,,,,,,,,1,1,,,,1,1,,,1,1,,,,1,1,,,1,1,1,1,,,,,,1,1,1,,,1,,1,,,,1,,,1,,,1,,,,1,,,1,1,1,,,,,,1,1,1,,,,1,,,1,,,,,,,,,,,,,1,,,,,,,,,,,1,,,,,,1,,,,1,,,,,,,,,,,,,,,,,,,,,,,,,,,,,,,,
Evolve Treatment Centers,6425 Chesebro Road,Agoura Hills,91301,Los Angeles,800-859-9052,,http://evolvetreatment.com/?utm_source=web&utm_medium=referral&utm_campaign=SAMHSA,34.1637177,-118.7373456,1,,1,,,,,,,1,1,1,1,1,1,1,1,1,,1,1,,,,1,,,,,,,,,1,,,,1,,,,,,,,,,,,,,,,,1,,,,,,,,,1,,,,,,,,1,1,,,,,1,1,,,,,1,,,1,1,,,,,,1,,,,,1,,,,1,,,,,,,,,,,,,1,,1,1,,,1,1,,,1,1,1,,,,,,,,,,,,,,,,,,,,,,,,,,,,,,,,,,,,,,,,,
BNI Treatment Centers,30954 Lobo Canyon Road,Agoura Hills,91301,Los Angeles,888-522-1504,,http://bnitreatment.com/,34.1221216,-118.7959711,1,,1,,,,,,,1,,1,1,1,1,1,1,1,,1,1,,,,1,1,,,,,,,,1,,,,1,,,,,,,,,,,1,,,,,,1,1,,,,,,,1,,,,1,,,1,,,1,,,,,1,1,,,,,,,,,,,,,,,1,,,,,1,,,,1,,,,,,,,,,,,,,,,,,,,,,,,,,,,,,1,1,,,,,,,,,,,,,,,,,,,,,,,,,,,,,,,,,,,
Beachside Teen Treatment Center,31275 Bailard Road,Malibu,90265,Los Angeles,310-457-2695 x302,Intake,http://www.beachsideteen.com,34.0390021,-118.853058,1,,1,,,,,,,,1,1,1,1,1,1,1,1,,,1,,,,1,,,,,,,,,1,,,,1,,,,,,,,,,,,,,,,,1,1,,,,,,,1,,,,1,,,1,,,,,,,1,1,1,1,,1,,1,,1,,,,,,1,,1,,,,,1,,,,1,,,,,,,,,,,,,,,,,,,,,,,,,,,,,,,1,,,,,,,,,,,,,,,,,,,,,,,,,,,,,,,,,,,
Avalon Malibu,32420 Pacific Coast Highway,Malibu,90265,Los Angeles,310-457-9111,Intakes,http://www.avalonmalibu.com,34.038968,-118.880796,1,,,1,,,,,,1,1,1,1,1,1,1,1,1,,,,1,,,1,1,1,,,,,,,1,,,,1,,,,,,,,,,,,,,,,,1,1,,,,,1,,1,,1,,1,,1,,,,1,1,,,1,,1,1,1,1,,,,1,,,,,,,1,,1,1,1,,1,,,,1,,1,,1,1,,,,,1,,,1,1,1,1,,,1,1,1,1,1,1,1,,1,,,,,,,,1,1,1,1,1,1,,,,,,,,,,,,,,,,,,,,,,,,,,
Optimist Youth Homes and,520 West Palmdale Boulevard,Palmdale,93551,Los Angeles,661-575-8395,,http://www.oyhfs.org/index.html,34.5835698,-118.1402918,1,,,,,,,1,,1,1,1,1,,1,,1,,,1,,1,,,,,1,,,,,,,,1,,,,,1,1,,,,,,,,1,,,,1,1,,1,,,,,,,1,1,,,1,,,,,1,1,,,1,,,1,,,,,,,,,1,,,,,,1,,,,,,1,,,,,,,,,,,,,,,,,,,,,,,,,,,,,,,,,,,,,,1,,,,,,,,,,,1,,,,,,,,,,,,,,,,,,,,
Childrens Bureau,1529 East Palmdale Boulevard,Palmdale,93550,Los Angeles,661-272-9996,,http://www.all4kids.org,34.580392,-118.1019806,1,,,,,,1,,,1,1,1,1,,1,,1,,,1,1,,,,,,1,,,,,,,,1,,1,,,1,,,,,1,,,,,,,,,1,,1,,,,,,,1,1,,,1,,1,,,,1,,,1,,,1,,,,,,,1,,1,,,,,,1,1,,,,,1,,,1,,,,,,,,,,,,,1,,,,,,,1,,,1,1,,,,,,,,,,,1,,,,,,,,,,,,,,,,,,,,,,,,,1,,,,,,
McKinley,2231 East Palmdale Boulevard,Palmdale,93550,Los Angeles,909-599-1227,,http://,34.580769,-118.088607,1,,,,,,1,,,1,1,1,1,,1,,1,,,1,1,,,,,,1,,,,,,,,1,,1,,,1,1,1,1,1,1,,1,,1,,,,,1,,,,,,,,,1,,1,,1,,,,,1,1,,1,,,,1,,,,,,,1,,,,,1,,,,1,1,,1,,1,,,1,,,,,,,,,,,,,,,,,,,,,,,,,,,,,,,,,,,,,,,,,,,,,,,,,,,,,,,,,,,,,,,,,,
Child and Family Center,38345 30th Street East,Palmdale,93550,Los Angeles,661-259-9439,,http://www.childfamilycenter.org/,34.5790964,-118.0764204,1,,,,,,1,,,1,1,1,1,,,,,,,1,,1,,,,,1,,,,,,,,1,1,,,,1,1,,,1,1,,,,,,,,1,1,1,,,,,,,,1,,,,,,1,,,,1,,,,,,1,,,,1,,,1,,1,,,,,,1,1,1,,,,1,,,1,,,,,,,,,,,,,,,,,,,,,,,,,,,,,,,,,,1,,,,,,,,,,,,,,,,,,,,,,,,,,,,,,,,
Child and Family Guidance Center,40005 10th Street West,Palmdale,93551,Los Angeles,661-265-8627,Intakes,http://www.childguidance.org,34.609816,-118.148428,1,,,,,,1,,,1,1,1,1,,1,1,1,,,,,1,,,,,1,,,,,,,,1,,,,,,,,,,1,,,,1,1,,,,1,,1,,,,1,,,1,1,,,1,,1,,,,1,,1,,,,1,,,,,,,,,1,,,,,,1,1,,,,,1,,,1,,,,,,,,,,,,,,,,,,,,,,,,,,,,,,,,,,,,,,,,,,,,,,1,1,,,1,,,,1,,,,,,,,,,,,
Penny Lane Centers,43520 Division Street,Lancaster,93535,Los Angeles,661-266-4783,Intakes,http://www.pennylane.org,34.6732831,-118.1295034,1,,,,,,1,,,1,1,1,1,,,1,1,,,,1,,,,,,1,,,,,,,,,1,1,,,1,1,1,,,1,,,,,,,,,1,1,,,,,,,,,1,,,1,,,,,,1,,,1,,,,1,,,,,,1,,,1,1,1,,,1,1,1,,,,1,,,,,,,,,,,,,,,,,,,,,,,,,,,,,,,,,,,,,,,,,,,,,,,,,,,,,,,,,,,,,,,,,,,,,
Heritage Clinic,43807 10th Street West,Lancaster,93534,Los Angeles,661-575-9365,Intake,http://heritageclinic.org,34.6788454,-118.1486113,1,,,,,,1,,,1,1,1,1,1,1,1,1,,,1,,1,,,,,1,,,,,,,1,1,1,,1,,,,,,,1,,,,,,,,,1,,,,,,1,1,,,,1,1,,,,,,1,1,,,1,,,1,1,,,,,,1,,1,,1,,,,,,1,1,,,1,,,1,,,,,,,,,,,,,,,,,,,,,,,,,,,,,,,,,,,,,,,,,,,,,,1,,,,,,,,,,,,,,,,,,,,
Childrens Bureau,921 West Avenue J,Lancaster,93534,Los Angeles,661-949-0131 x2109,Intake,http://www.all4kids.org,34.6894369,-118.1465409,1,,,,,,,1,,1,1,1,1,1,1,,1,1,,1,,,1,,,1,1,,,,,,,,1,,1,,,,1,,,,1,,,,,,,,1,1,,,,,,,,,1,1,,,1,,1,,,1,1,,,1,,,1,,,,,,,1,,1,,,,,,1,1,,,,,1,,,1,,,,,,,,,,,,,1,,,,,,,1,,,,,,,,,,,,,,,,,,,,,,,,,,,,,,,,,,,,,,,,,,,,,,
Tarzana Treatment Centers Inc,44443 10th Street West,Lancaster,93534,Los Angeles,818-996-1051,,http://www.tarzanatc.org,34.690227,-118.148048,1,,,,,,,,1,1,1,1,,,,1,,1,,,,1,,,,1,1,,,,,,,1,1,1,1,1,,,1,1,1,,1,1,1,,,,1,1,1,1,1,1,,,,1,,1,,,,,1,,,,,1,,1,,,,1,1,1,,,,,,1,,,,1,,1,1,,1,1,1,,,1,,,,,,,,,,,,,,,,,,,,,,,,,,,,,,,,,,,,,,,,,,,,,,,,,,,,,,,,,,,,,,,,,,,,,
Tarzana Treatment Centers Inc,44447 North 10th Street West,Lancaster,93534,Los Angeles,661-726-2630,Intake,http://www.tarzanatc.org,34.6908921,-118.1487942,1,,1,,,,,,,,1,1,1,,,,,1,,,,1,,,1,,,,,,,,,1,1,1,,1,,,,,,,1,,,,,,1,1,1,1,1,1,,,,,,1,,,,,,,,,,,,,,,,,1,,,1,,,,,,,1,,,1,,1,,,,,,1,,,,,,,,,,,,,,,,,,,,,,,,,,,,,,,,,,,,,,,,,,,,,,,,,,,,,,,,,,,,,,,,,,,,,
Tarzana Treatment Centers Inc,44447 10th Street West,Lancaster,93534,Los Angeles,661-726-2630,Intake,http://www.tarzanatc.org,34.6908921,-118.1487942,1,,,1,,,,,,,1,1,1,,,1,,1,,1,,1,,,1,,,,,,,,,1,1,1,1,1,,1,1,1,,1,1,1,1,,,,1,,1,1,1,1,,,,1,,1,,,,,1,,,,1,,1,,,,,,1,,1,,,,,,,1,,1,,1,,,1,1,1,,,1,,,,,,,,,,,,,,,,,,,,,,,,,,,,,,,,,,,,,,,,,,,,,,,,,,,,,,,,,,,,,,,,,,,,,
Hathaway/Sycamores Child/Family Servs,44738 Sierra Highway,Lancaster,93534,Los Angeles,661-942-5749,Intakes,http://www.hathaway-sycamores.org,34.6952099,-118.1359948,1,,,,,,,1,,1,1,,1,,1,1,1,,,1,,1,,,,,1,,,,,,,,1,1,,,,1,1,1,1,1,1,1,1,,1,,,,1,1,1,,,,,1,,,1,1,,,1,,,,,1,1,,1,1,,,1,,,,,,,,1,1,,,,,,1,1,,,,,1,,,1,,,,,,,,,,,,,,,,,,,,,,,,,,,,,,,,,,,,,,,,,,,,,,,,,,,,,,,,,,,,,,,,,,
Tarzana Treatment Centers Inc,907 West Lancaster Boulevard,Lancaster,93534,Los Angeles,800-996-1051,Intake,http://www.tarzanatc.org,34.697464,-118.147244,1,,,,,,,,1,,1,1,1,,,,,1,,,,1,,,,,1,,,,,,,1,1,1,,1,,1,,1,,,1,1,1,,,,1,1,1,1,1,1,,,,,,1,,,,,,,,,,,,,,,,,1,,,1,,,,,,,1,,,1,,,1,1,1,,,1,,,,,,,,,,,,,,,,,,,,,,,,,,,,,,,,,,,,,,,,,,,,,,,,,,,,,,,,,,,,,,,,,,,,,